{"features":[{"geometry":{"coordinates":[-86.25027,40.00032],"type":"Point"},"type":"Feature","properties":{"geoNameId":4921868,"alternateNames":["ইন্ডিয়ানা","hoosier state","인디애나 주","ایندیانا ایالتی","yin-thi-ôn-na̍p","ఇండియానా","इन्डियाना","ėndiana","штат індыяна","ayndyana ayalty","intiana","'inikiana","انڈیانا","indiāna","indiana muzh","intyana","indiana suyu","इण्डियाना","idi'ana","індіана","indianae","endiana","انديانا","รัฐอินดีแอนา","ಇಂಡಿಯಾನಾ","индиана","ایندیانا","in","индиане","ինդիանա","ཨིན་ཌི་ཡཱ་ན།","indiyanna shitati","ઇન્ડિયાના","ኢንዲያና","индиана муж","intiyana","indiann-a","yin di an na zhou","印第安纳州","အင်ဒီယားနားပြည်နယ်","andyana","इंडियाना","ayndyana","yyndyana","‘inikiana","إنديانا","yin-thi-on-nap","indiyana","indian-a","indiaena ju","state of indiana","இந்தியானா","ܐܢܕܝܐܢܐ","ინდიანა","印第安納州","ഇന്ത്യാന","ᐃᓐᑎᐋᓈ","インディアナ州","индән","इन्दियाना","ndiana","ئیندیانا","indianao","אינדיאנה","ਇੰਡੀਆਨਾ","ndiánà","индианæ","индијана","indiana zhou","estado de indiana","indijana","shtat indyjana","indiǣna","ιντιάνα","אינדיאנע","indiane","índíʼyéenah hahoodzo","indiana","i̇ndiana"],"toponym":"Indiana","featureCode":"ADM1","countryCode":"US","featureClass":"A","hierarchy":{"features":[{"geometry":null,"type":"Feature","properties":{"geoNameId":6252001,"toponym":"United States","hierarchy":null,"name":"indiana","locationType":null,"positions":[10],"type":"location"}},{"geometry":null,"type":"Feature","properties":{"geoNameId":6255149,"toponym":"North America","hierarchy":null,"name":"indiana","locationType":null,"positions":[10],"type":"location"}}],"type":"FeatureCollection"},"name":"indiana","locationType":null,"positions":[10],"type":"location","alternates":{"features":[{"geometry":{"coordinates":[-86.25027,40.00032],"type":"Point"},"type":"Feature","properties":{"geoNameId":4921868,"toponym":"Indiana","featureCode":"ADM1","countryCode":"US","featureClass":"A","hierarchy":{"features":[{"geometry":null,"type":"Feature","properties":{"geoNameId":6252001,"toponym":"United States","hierarchy":null,"name":"indiana","locationType":null,"positions":[10],"type":"location"}},{"geometry":null,"type":"Feature","properties":{"geoNameId":6255149,"toponym":"North America","hierarchy":null,"name":"indiana","locationType":null,"positions":[10],"type":"location"}}],"type":"FeatureCollection"},"name":"indiana","positions":[10],"type":"location"}},{"geometry":{"coordinates":[-79.15253,40.62146],"type":"Point"},"type":"Feature","properties":{"geoNameId":5194868,"alternateNames":["индиана","indijana","ayndyana  pnsylwanya","ایندیانا، پنسیلوانیا","インディアナ","индијана","idi","indiana"],"toponym":"Indiana","featureCode":"PPLA2","countryCode":"US","featureClass":"P","hierarchy":{"features":[{"geometry":null,"type":"Feature","properties":{"geoNameId":5194872,"toponym":"Indiana County","hierarchy":{"features":[],"type":"FeatureCollection"},"name":"indiana","locationType":null,"positions":[10],"type":"location"}},{"geometry":null,"type":"Feature","properties":{"geoNameId":6254927,"toponym":"Pennsylvania","hierarchy":{"features":[],"type":"FeatureCollection"},"name":"indiana","locationType":null,"positions":[10],"type":"location"}},{"geometry":null,"type":"Feature","properties":{"geoNameId":6252001,"toponym":"United States","hierarchy":{"features":[],"type":"FeatureCollection"},"name":"indiana","locationType":null,"positions":[10],"type":"location"}},{"geometry":null,"type":"Feature","properties":{"geoNameId":6255149,"toponym":"North America","hierarchy":{"features":[],"type":"FeatureCollection"},"name":"indiana","locationType":null,"positions":[10],"type":"location"}}],"type":"FeatureCollection"},"name":"indiana","locationType":null,"positions":[10],"type":"location"}},{"geometry":{"coordinates":[-73.05136,-3.49989],"type":"Point"},"type":"Feature","properties":{"geoNameId":10346348,"alternateNames":["indiana"],"toponym":"Indiana","featureCode":"PPLA3","countryCode":"PE","featureClass":"P","hierarchy":{"features":[{"geometry":null,"type":"Feature","properties":{"geoNameId":3694873,"toponym":"Provincia de Maynas","hierarchy":{"features":[],"type":"FeatureCollection"},"name":"indiana","locationType":null,"positions":[10],"type":"location"}},{"geometry":null,"type":"Feature","properties":{"geoNameId":3695238,"toponym":"Loreto","hierarchy":{"features":[],"type":"FeatureCollection"},"name":"indiana","locationType":null,"positions":[10],"type":"location"}},{"geometry":null,"type":"Feature","properties":{"geoNameId":3932488,"toponym":"Peru","hierarchy":{"features":[],"type":"FeatureCollection"},"name":"indiana","locationType":null,"positions":[10],"type":"location"}},{"geometry":null,"type":"Feature","properties":{"geoNameId":6255150,"toponym":"South America","hierarchy":{"features":[],"type":"FeatureCollection"},"name":"indiana","locationType":null,"positions":[10],"type":"location"}}],"type":"FeatureCollection"},"name":"indiana","locationType":null,"positions":[10],"type":"location"}},{"geometry":{"coordinates":[-51.26047,-22.12587],"type":"Point"},"type":"Feature","properties":{"geoNameId":6322290,"alternateNames":["indiana"],"toponym":"Indiana","featureCode":"ADM2","countryCode":"BR","featureClass":"A","hierarchy":{"features":[{"geometry":null,"type":"Feature","properties":{"geoNameId":3448433,"toponym":"São Paulo","hierarchy":{"features":[],"type":"FeatureCollection"},"name":"indiana","locationType":null,"positions":[10],"type":"location"}},{"geometry":null,"type":"Feature","properties":{"geoNameId":3469034,"toponym":"Brazil","hierarchy":{"features":[],"type":"FeatureCollection"},"name":"indiana","locationType":null,"positions":[10],"type":"location"}},{"geometry":null,"type":"Feature","properties":{"geoNameId":6255150,"toponym":"South America","hierarchy":{"features":[],"type":"FeatureCollection"},"name":"indiana","locationType":null,"positions":[10],"type":"location"}}],"type":"FeatureCollection"},"name":"indiana","locationType":null,"positions":[10],"type":"location"}},{"geometry":{"coordinates":[-79.08755,40.65205],"type":"Point"},"type":"Feature","properties":{"geoNameId":5194872,"alternateNames":["indiana kun","indiana jun","indiana konderria","hrabstwo indiana","konteth indiana","comte d'indiana","انڈیانا کاؤنٹی","شهرستان ایندیانا، پنسیلوانیا","comitatul indiana","indiana county","condado han indiana","انڈیانا کاؤنٹی، پنسلوانیا","indiana kūn","condado de indiana","comte dindiana","індіана","インディアナ郡","округ индијана","indiana megye","comté d'indiana","okrug indijana","индиана","contea di indiana","shhrstan ayndyana  pnsylwanya","印地安納縣","indiana comitatus","مقاطعة إنديانا","contae indiana","ինդիանա շրջան","comté dindiana","indiana srjan","quận indiana","yin de an na xian","lycoming county","quan indiana","westmoreland county","indiyana ka'unti","indiana","ইন্ডিয়ানা কাউন্টি"],"toponym":"Indiana County","featureCode":"ADM2","countryCode":"US","featureClass":"A","hierarchy":{"features":[{"geometry":null,"type":"Feature","properties":{"geoNameId":6254927,"toponym":"Pennsylvania","hierarchy":{"features":[],"type":"FeatureCollection"},"name":"indiana","locationType":null,"positions":[10],"type":"location"}},{"geometry":null,"type":"Feature","properties":{"geoNameId":6252001,"toponym":"United States","hierarchy":{"features":[],"type":"FeatureCollection"},"name":"indiana","locationType":null,"positions":[10],"type":"location"}},{"geometry":null,"type":"Feature","properties":{"geoNameId":6255149,"toponym":"North America","hierarchy":{"features":[],"type":"FeatureCollection"},"name":"indiana","locationType":null,"positions":[10],"type":"location"}}],"type":"FeatureCollection"},"name":"indiana","locationType":null,"positions":[10],"type":"location"}},{"geometry":{"coordinates":[-76.11667,8.65],"type":"Point"},"type":"Feature","properties":{"geoNameId":3680595,"alternateNames":["indiano","indiana"],"toponym":"Indiano","featureCode":"PPL","countryCode":"CO","featureClass":"P","hierarchy":{"features":[{"geometry":null,"type":"Feature","properties":{"geoNameId":3674454,"toponym":"Montería","hierarchy":{"features":[],"type":"FeatureCollection"},"name":"indiana","locationType":null,"positions":[10],"type":"location"}},{"geometry":null,"type":"Feature","properties":{"geoNameId":3685889,"toponym":"Departamento de Córdoba","hierarchy":{"features":[],"type":"FeatureCollection"},"name":"indiana","locationType":null,"positions":[10],"type":"location"}},{"geometry":null,"type":"Feature","properties":{"geoNameId":3686110,"toponym":"Colombia","hierarchy":{"features":[],"type":"FeatureCollection"},"name":"indiana","locationType":null,"positions":[10],"type":"location"}},{"geometry":null,"type":"Feature","properties":{"geoNameId":6255150,"toponym":"South America","hierarchy":{"features":[],"type":"FeatureCollection"},"name":"indiana","locationType":null,"positions":[10],"type":"location"}}],"type":"FeatureCollection"},"name":"indiana","locationType":null,"positions":[10],"type":"location"}},{"geometry":{"coordinates":[-87.85,15.46667],"type":"Point"},"type":"Feature","properties":{"geoNameId":3608849,"alternateNames":["indiana"],"toponym":"Indiana","featureCode":"PPL","countryCode":"HN","featureClass":"P","hierarchy":{"features":[{"geometry":null,"type":"Feature","properties":{"geoNameId":3613140,"toponym":"Departamento de Cortés","hierarchy":{"features":[],"type":"FeatureCollection"},"name":"indiana","locationType":null,"positions":[10],"type":"location"}},{"geometry":null,"type":"Feature","properties":{"geoNameId":3608932,"toponym":"Honduras","hierarchy":{"features":[],"type":"FeatureCollection"},"name":"indiana","locationType":null,"positions":[10],"type":"location"}},{"geometry":null,"type":"Feature","properties":{"geoNameId":6255149,"toponym":"North America","hierarchy":{"features":[],"type":"FeatureCollection"},"name":"indiana","locationType":null,"positions":[10],"type":"location"}}],"type":"FeatureCollection"},"name":"indiana","locationType":null,"positions":[10],"type":"location"}},{"geometry":{"coordinates":[135.43994,-23.3383],"type":"Point"},"type":"Feature","properties":{"geoNameId":8644346,"alternateNames":["indiana"],"toponym":"Indiana","featureCode":"PPL","countryCode":"AU","featureClass":"P","hierarchy":{"features":[{"geometry":null,"type":"Feature","properties":{"geoNameId":7839685,"toponym":"Central Desert","hierarchy":{"features":[],"type":"FeatureCollection"},"name":"indiana","locationType":null,"positions":[10],"type":"location"}},{"geometry":null,"type":"Feature","properties":{"geoNameId":2064513,"toponym":"Northern Territory","hierarchy":{"features":[],"type":"FeatureCollection"},"name":"indiana","locationType":null,"positions":[10],"type":"location"}},{"geometry":null,"type":"Feature","properties":{"geoNameId":2077456,"toponym":"Australia","hierarchy":{"features":[],"type":"FeatureCollection"},"name":"indiana","locationType":null,"positions":[10],"type":"location"}},{"geometry":null,"type":"Feature","properties":{"geoNameId":6255151,"toponym":"Oceania","hierarchy":{"features":[],"type":"FeatureCollection"},"name":"indiana","locationType":null,"positions":[10],"type":"location"}}],"type":"FeatureCollection"},"name":"indiana","locationType":null,"positions":[10],"type":"location"}},{"geometry":{"coordinates":[-40.35389,-17.83917],"type":"Point"},"type":"Feature","properties":{"geoNameId":3456398,"alternateNames":["nnu","indiana","nanuque"],"toponym":"Nanuque","featureCode":"PPL","countryCode":"BR","featureClass":"P","hierarchy":{"features":[{"geometry":null,"type":"Feature","properties":{"geoNameId":6321593,"toponym":"Nanuque","hierarchy":{"features":[],"type":"FeatureCollection"},"name":"indiana","locationType":null,"positions":[10],"type":"location"}},{"geometry":null,"type":"Feature","properties":{"geoNameId":3457153,"toponym":"Minas Gerais","hierarchy":{"features":[],"type":"FeatureCollection"},"name":"indiana","locationType":null,"positions":[10],"type":"location"}},{"geometry":null,"type":"Feature","properties":{"geoNameId":3469034,"toponym":"Brazil","hierarchy":{"features":[],"type":"FeatureCollection"},"name":"indiana","locationType":null,"positions":[10],"type":"location"}},{"geometry":null,"type":"Feature","properties":{"geoNameId":6255150,"toponym":"South America","hierarchy":{"features":[],"type":"FeatureCollection"},"name":"indiana","locationType":null,"positions":[10],"type":"location"}}],"type":"FeatureCollection"},"name":"indiana","locationType":null,"positions":[10],"type":"location"}},{"geometry":{"coordinates":[-51.25167,-22.17444],"type":"Point"},"type":"Feature","properties":{"geoNameId":3461294,"alternateNames":["indiana"],"toponym":"Indiana","featureCode":"PPL","countryCode":"BR","featureClass":"P","hierarchy":{"features":[{"geometry":null,"type":"Feature","properties":{"geoNameId":6322290,"toponym":"Indiana","hierarchy":{"features":[],"type":"FeatureCollection"},"name":"indiana","locationType":null,"positions":[10],"type":"location"}},{"geometry":null,"type":"Feature","properties":{"geoNameId":3448433,"toponym":"São Paulo","hierarchy":{"features":[],"type":"FeatureCollection"},"name":"indiana","locationType":null,"positions":[10],"type":"location"}},{"geometry":null,"type":"Feature","properties":{"geoNameId":3469034,"toponym":"Brazil","hierarchy":{"features":[],"type":"FeatureCollection"},"name":"indiana","locationType":null,"positions":[10],"type":"location"}},{"geometry":null,"type":"Feature","properties":{"geoNameId":6255150,"toponym":"South America","hierarchy":{"features":[],"type":"FeatureCollection"},"name":"indiana","locationType":null,"positions":[10],"type":"location"}}],"type":"FeatureCollection"},"name":"indiana","locationType":null,"positions":[10],"type":"location"}},{"geometry":{"coordinates":[121.0773,16.3332],"type":"Point"},"type":"Feature","properties":{"geoNameId":1710762,"alternateNames":["indiana"],"toponym":"Indiana","featureCode":"PPL","countryCode":"PH","featureClass":"P","hierarchy":{"features":[{"geometry":null,"type":"Feature","properties":{"geoNameId":1697456,"toponym":"Province of Nueva Vizcaya","hierarchy":{"features":[],"type":"FeatureCollection"},"name":"indiana","locationType":null,"positions":[10],"type":"location"}},{"geometry":null,"type":"Feature","properties":{"geoNameId":7521297,"toponym":"Cagayan Valley","hierarchy":{"features":[],"type":"FeatureCollection"},"name":"indiana","locationType":null,"positions":[10],"type":"location"}},{"geometry":null,"type":"Feature","properties":{"geoNameId":1694008,"toponym":"Philippines","hierarchy":{"features":[],"type":"FeatureCollection"},"name":"indiana","locationType":null,"positions":[10],"type":"location"}},{"geometry":null,"type":"Feature","properties":{"geoNameId":6255147,"toponym":"Asia","hierarchy":{"features":[],"type":"FeatureCollection"},"name":"indiana","locationType":null,"positions":[10],"type":"location"}}],"type":"FeatureCollection"},"name":"indiana","locationType":null,"positions":[10],"type":"location"}},{"geometry":{"coordinates":[-93.0252,41.20444],"type":"Point"},"type":"Feature","properties":{"geoNameId":4861712,"alternateNames":["indiana"],"toponym":"Indiana","featureCode":"PPL","countryCode":"US","featureClass":"P","hierarchy":{"features":[{"geometry":null,"type":"Feature","properties":{"geoNameId":4866274,"toponym":"Marion County","hierarchy":{"features":[],"type":"FeatureCollection"},"name":"indiana","locationType":null,"positions":[10],"type":"location"}},{"geometry":null,"type":"Feature","properties":{"geoNameId":4862182,"toponym":"Iowa","hierarchy":{"features":[],"type":"FeatureCollection"},"name":"indiana","locationType":null,"positions":[10],"type":"location"}},{"geometry":null,"type":"Feature","properties":{"geoNameId":6252001,"toponym":"United States","hierarchy":{"features":[],"type":"FeatureCollection"},"name":"indiana","locationType":null,"positions":[10],"type":"location"}},{"geometry":null,"type":"Feature","properties":{"geoNameId":6255149,"toponym":"North America","hierarchy":{"features":[],"type":"FeatureCollection"},"name":"indiana","locationType":null,"positions":[10],"type":"location"}}],"type":"FeatureCollection"},"name":"indiana","locationType":null,"positions":[10],"type":"location"}},{"geometry":{"coordinates":[-3.69676,40.24645],"type":"Point"},"type":"Feature","properties":{"geoNameId":9406284,"alternateNames":["indiana"],"toponym":"Indiana","featureCode":"HTL","countryCode":"ES","featureClass":"S","hierarchy":{"features":[{"geometry":null,"type":"Feature","properties":{"geoNameId":6355233,"toponym":"Provincia de Madrid","hierarchy":{"features":[],"type":"FeatureCollection"},"name":"indiana","locationType":null,"positions":[10],"type":"location"}},{"geometry":null,"type":"Feature","properties":{"geoNameId":3117732,"toponym":"Comunidad de Madrid","hierarchy":{"features":[],"type":"FeatureCollection"},"name":"indiana","locationType":null,"positions":[10],"type":"location"}},{"geometry":null,"type":"Feature","properties":{"geoNameId":2510769,"toponym":"Spain","hierarchy":{"features":[],"type":"FeatureCollection"},"name":"indiana","locationType":null,"positions":[10],"type":"location"}},{"geometry":null,"type":"Feature","properties":{"geoNameId":6255148,"toponym":"Europe","hierarchy":{"features":[],"type":"FeatureCollection"},"name":"indiana","locationType":null,"positions":[10],"type":"location"}}],"type":"FeatureCollection"},"name":"indiana","locationType":null,"positions":[10],"type":"location"}},{"geometry":{"coordinates":[151.28688,-29.9269],"type":"Point"},"type":"Feature","properties":{"geoNameId":8808786,"alternateNames":["indiana"],"toponym":"Indiana","featureCode":"HMSD","countryCode":"AU","featureClass":"S","hierarchy":{"features":[{"geometry":null,"type":"Feature","properties":{"geoNameId":7839726,"toponym":"Guyra","hierarchy":{"features":[],"type":"FeatureCollection"},"name":"indiana","locationType":null,"positions":[10],"type":"location"}},{"geometry":null,"type":"Feature","properties":{"geoNameId":2155400,"toponym":"State of New South Wales","hierarchy":{"features":[],"type":"FeatureCollection"},"name":"indiana","locationType":null,"positions":[10],"type":"location"}},{"geometry":null,"type":"Feature","properties":{"geoNameId":2077456,"toponym":"Australia","hierarchy":{"features":[],"type":"FeatureCollection"},"name":"indiana","locationType":null,"positions":[10],"type":"location"}},{"geometry":null,"type":"Feature","properties":{"geoNameId":6255151,"toponym":"Oceania","hierarchy":{"features":[],"type":"FeatureCollection"},"name":"indiana","locationType":null,"positions":[10],"type":"location"}}],"type":"FeatureCollection"},"name":"indiana","locationType":null,"positions":[10],"type":"location"}},{"geometry":{"coordinates":[135.43968,-23.3291],"type":"Point"},"type":"Feature","properties":{"geoNameId":8815956,"alternateNames":["indiana"],"toponym":"Indiana","featureCode":"HMSD","countryCode":"AU","featureClass":"S","hierarchy":{"features":[{"geometry":null,"type":"Feature","properties":{"geoNameId":7839685,"toponym":"Central Desert","hierarchy":{"features":[],"type":"FeatureCollection"},"name":"indiana","locationType":null,"positions":[10],"type":"location"}},{"geometry":null,"type":"Feature","properties":{"geoNameId":2064513,"toponym":"Northern Territory","hierarchy":{"features":[],"type":"FeatureCollection"},"name":"indiana","locationType":null,"positions":[10],"type":"location"}},{"geometry":null,"type":"Feature","properties":{"geoNameId":2077456,"toponym":"Australia","hierarchy":{"features":[],"type":"FeatureCollection"},"name":"indiana","locationType":null,"positions":[10],"type":"location"}},{"geometry":null,"type":"Feature","properties":{"geoNameId":6255151,"toponym":"Oceania","hierarchy":{"features":[],"type":"FeatureCollection"},"name":"indiana","locationType":null,"positions":[10],"type":"location"}}],"type":"FeatureCollection"},"name":"indiana","locationType":null,"positions":[10],"type":"location"}},{"geometry":{"coordinates":[-58.67773,6.91336],"type":"Point"},"type":"Feature","properties":{"geoNameId":3378256,"alternateNames":["indina","indiana"],"toponym":"Indiana","featureCode":"LCTY","countryCode":"GY","featureClass":"L","hierarchy":{"features":[{"geometry":null,"type":"Feature","properties":{"geoNameId":3376407,"toponym":"Pomeroon-Supenaam Region","hierarchy":{"features":[],"type":"FeatureCollection"},"name":"indiana","locationType":null,"positions":[10],"type":"location"}},{"geometry":null,"type":"Feature","properties":{"geoNameId":3378535,"toponym":"Guyana","hierarchy":{"features":[],"type":"FeatureCollection"},"name":"indiana","locationType":null,"positions":[10],"type":"location"}},{"geometry":null,"type":"Feature","properties":{"geoNameId":6255150,"toponym":"South America","hierarchy":{"features":[],"type":"FeatureCollection"},"name":"indiana","locationType":null,"positions":[10],"type":"location"}}],"type":"FeatureCollection"},"name":"indiana","locationType":null,"positions":[10],"type":"location"}},{"geometry":{"coordinates":[31.22952,30.03147],"type":"Point"},"type":"Feature","properties":{"geoNameId":9953265,"alternateNames":["indiana"],"toponym":"Indiana","featureCode":"HTL","countryCode":"EG","featureClass":"S","hierarchy":{"features":[{"geometry":null,"type":"Feature","properties":{"geoNameId":360631,"toponym":"Cairo Governorate","hierarchy":{"features":[],"type":"FeatureCollection"},"name":"indiana","locationType":null,"positions":[10],"type":"location"}},{"geometry":null,"type":"Feature","properties":{"geoNameId":357994,"toponym":"Egypt","hierarchy":{"features":[],"type":"FeatureCollection"},"name":"indiana","locationType":null,"positions":[10],"type":"location"}},{"geometry":null,"type":"Feature","properties":{"geoNameId":6255146,"toponym":"Africa","hierarchy":{"features":[],"type":"FeatureCollection"},"name":"indiana","locationType":null,"positions":[10],"type":"location"}}],"type":"FeatureCollection"},"name":"indiana","locationType":null,"positions":[10],"type":"location"}},{"geometry":{"coordinates":[-91.35068,34.23871],"type":"Point"},"type":"Feature","properties":{"geoNameId":4115907,"alternateNames":["indiana spur","indiana"],"toponym":"Indiana Spur","featureCode":null,"countryCode":"US","featureClass":"S","hierarchy":{"features":[{"geometry":null,"type":"Feature","properties":{"geoNameId":4099679,"toponym":"Arkansas County","hierarchy":{"features":[],"type":"FeatureCollection"},"name":"indiana","locationType":null,"positions":[10],"type":"location"}},{"geometry":null,"type":"Feature","properties":{"geoNameId":4099753,"toponym":"Arkansas","hierarchy":{"features":[],"type":"FeatureCollection"},"name":"indiana","locationType":null,"positions":[10],"type":"location"}},{"geometry":null,"type":"Feature","properties":{"geoNameId":6252001,"toponym":"United States","hierarchy":{"features":[],"type":"FeatureCollection"},"name":"indiana","locationType":null,"positions":[10],"type":"location"}},{"geometry":null,"type":"Feature","properties":{"geoNameId":6255149,"toponym":"North America","hierarchy":{"features":[],"type":"FeatureCollection"},"name":"indiana","locationType":null,"positions":[10],"type":"location"}}],"type":"FeatureCollection"},"name":"indiana","locationType":null,"positions":[10],"type":"location"}},{"geometry":{"coordinates":[-105.4025,36.70892],"type":"Point"},"type":"Feature","properties":{"geoNameId":5472717,"alternateNames":["indiana"],"toponym":"Indiana","featureCode":"MN","countryCode":"US","featureClass":"S","hierarchy":{"features":[{"geometry":null,"type":"Feature","properties":{"geoNameId":5493780,"toponym":"Taos County","hierarchy":{"features":[],"type":"FeatureCollection"},"name":"indiana","locationType":null,"positions":[10],"type":"location"}},{"geometry":null,"type":"Feature","properties":{"geoNameId":5481136,"toponym":"New Mexico","hierarchy":{"features":[],"type":"FeatureCollection"},"name":"indiana","locationType":null,"positions":[10],"type":"location"}},{"geometry":null,"type":"Feature","properties":{"geoNameId":6252001,"toponym":"United States","hierarchy":{"features":[],"type":"FeatureCollection"},"name":"indiana","locationType":null,"positions":[10],"type":"location"}},{"geometry":null,"type":"Feature","properties":{"geoNameId":6255149,"toponym":"North America","hierarchy":{"features":[],"type":"FeatureCollection"},"name":"indiana","locationType":null,"positions":[10],"type":"location"}}],"type":"FeatureCollection"},"name":"indiana","locationType":null,"positions":[10],"type":"location"}},{"geometry":{"coordinates":[72,-6],"type":"Point"},"type":"Feature","properties":{"geoNameId":1282588,"alternateNames":["territoires britanniques de l'océan indien","i-british indian ocean territory","britske indickooceanske uzemie","britich xin deiy n xo cheiy n ther ri thx ri","британско индиско океанска територија","britisches territorium im indischen ozean","britu indijas okeāna teritorija","ဗြိတိသျှ အိန္ဒိယသမုဒ္ဒရာ နယ်မြေ","britske uzemie v indickom oceane","teritwari y'inyanja y'abahinde nyongereza","territorio oceanic britanno-indian","brytyjskie terytorium oceanu indyjskiego","brits indische oceaanterritorium","lãnh thổ ấn độ dương thuộc anh","indijas okeana britu teritorija","ब्रिटिश इंडियन ओशन टेरीटरी","பிரிட்டிஷ் இந்தியப் பெருங்கடல் பகுதி","indi okeanyndagy britan territorijasy","intara y'ubwongereza yo mu birwa by'abahindi","บริติชอินเดียนโอเชียนเทร์ริทอรี","teritöio britannego de loçeano indian","indiako ozeanoko britainiar lurraldea","tiriogaeth cefnfor india prydain","teritori samudra hindia britania","indijy furdy britanijy territori","የብሪታንያ ሕንድ ውቅያኖስ ግዛት","britaniana teritorio en indiana oceano","مستعمره‌های بریتانیا در اقیانوس هند","teritoriul britanic din oceanul indian","keeriindi britaani to maayo enndo","territorio britanico do oceano indico","territorio britannico dell’oceano indiano","britiske territorier i indiahavet","orílẹ́ède etíkun índíánì ti ìlú bírítísì","brittiläinen intian valtameren alue","det britiske territoriet i indiahavet","territorio britannico delloceano indiano","ბრიტანეთის ინდოეთის ოკეანის ტერიტორია","yeong-guglyeong indoyang jiyeog","ಬ್ರಿಟೀಶ್ ಇಂಡಿಯನ್ ಮಹಾಸಾಗರ ಪ್ರದೇಶ","ingiliz hint okyanusu boelgesi","potu fonua moana 'initia fakapilitania","faridranomasina indiana britanika","territorio británico del océano índico","tiriad breizhveurat meurvor indez","thuoc gia anh tai an gjo duong","britaniya-hindistan okeanik territoriyası","territori britanic de l'ocea indic","territorio britanico del oceano indico","ब्रिटिश हिंद महासागर क्षेत्र","брытанская тэрыторыя ў індыйскім акіяне","βρετανικό έδαφος ινδικού ωκεανού","የብሪታኒያ ህንድ ውቂያኖስ ግዛት","britisa indiyana osana teritari","brita hindoceana teritorio","英領インド洋地域","ying shu yin du yang ling de","aqlym almhyt alhndy albrytany","बेलायती हिन्द महासागर क्षेत्र","bretsku indiahavsoyggjarnar","britans'ka teritorija v indijs'komu okeani","téritori samudra hindia britania","britisa hinda mahasagariya ksetra","britanin latta indin okeanekh'","territori britannic en l'ocean indic","britiske omrade i det indiske hav","brit indiai-óceáni terület","βρετανικά εδάφη ινδικού ωκεανού","territoire britannique de l'océan indien","britse gebieden in de indische oceaan","indijos vandenyno britu sritis","brittiska territoriet i indiska oceanen","قلمرو بریتانیا در اقیانوس هند","agbègbè òkun índíà brítánì","britansko ozemlje v indijskem oceanu","eneo la uingereza katika bahari hindi","britse indiese oseaan gebied","pirittaniya intiyap perunkatal mantalam","igirisu lingindo yang de yu","territoire britannique de l'ocean indien","territorio británico do océano índico","イギリス領インド洋地域","հնդկական օվկիանոսի բրիտանական տարածքներ","英属印度洋领地","британская территория в индийском океане","teritwari y’inyanja y’abahinde nyongereza","britisa bharata mahasagariya ancala","vretanika edafi indikou okeanou","britisa hindi mahasagara ksetra","britis bharatiya osan prantam","британин латта индин океанехь","ব্ৰিটিশ্ব ইণ্ডিয়ান মহাসাগৰৰ অঞ্চল","брытанская тэрыторыя індыйскага акіяну","britansko indisko okeanska teritorija","indijas okeāna britu teritorija","ব্রিটিশ ভারত মহাসাগরীয় অঞ্চল","brytanskaa terytorya indyjskaga akianu","britanske indijskookeanske teritorije","инди океанындагы британ территориясы","britanski teritorii v indijskija okean","territorio britanico de locian indico","הטריטוריה הבריטית באוקיינוס ההודי","britanya hint okyanusu toprakları","alaqlym albrytany fy almhyt alhndy","британска територија индијског океана","lutanda lwa angeletele ku mbu wa indiya","ying lingindo yang de yu","британски територии в индийския океан","britanski indijskooceanski teritorij","britske indickooceanske uzemi","britaniya-hindistan okeanik territoriyasi","bresku indlandshafseyjar","wilayah inggris di samudra hindia","yankin birtaniya na tekun indiya","британські території індійського океану","territorio britannico dell'oceano indiano","برطانوی بحرہند خطہ","britské indickooceánské území","io","criocha briotanacha an aigein indiagh","orileede etikun indiani ti ilu biritisi","bryttisca indisca garsecg landscipe","british indian ocean territory","బ్రిటిష్ భారతీయ ఓషన్ ప్రాంతం","britu indijas okeana teritorija","britansko indijska okeanska teritorija","ബ്രിട്ടീഷ് ഇന്ത്യന്‍ മഹാസമുദ്ര പ്രദേശം","teritoryo han britanya ha kalawdan indyano","үнді мұхитындағы британия аймағы","mabelé ya angɛlɛtɛ́lɛ na mbú ya indiya","territori britànic de loceà índic","teritoeio britannego de loceano indian","brit indiai-oceani teruelet","bizinga by'ecago","tiriogaeth brydeinig cefnfor india","טריטוריה בריטית באוקיאנוס ההודי","إقليم المحيط الهندي البريطاني","ბრიტანული ტერიტორია ინდოეთის ოკეანეში","det britiske territorium i det indiske ocean","බ්‍රිතාන්‍ය ඉන්දීය සාගර ප්‍රාන්තය","برطانوی ہندوستانی سمندری خطہ","britaniya hind okeanı əraziləri","الإقليم البريطاني في المحيط الهندي","i̇ngiliz hint okyanusu bölgesi","britské územie v indickom oceáne","wilayah lautan hindi british","britiske område i det indiske hav","britanskaja territorija v indijskom okeane","wilayah inggreh di samudra hindia","britis indiyan mahasagara pradesa","britanska teritorija indijskog okeana","britské indickooceánske územie","wilayah samudra hindia britania","brytanskaja tehrytoryja u indyjskim akijane","britanya hint okyanusu topraklari","territori britanic de locea indic","indijos vandenyno britų sritis","territori britànic de l'oceà índic","qlmrw brytanya dr aqyanws hnd","ਬਰਤਾਨਵੀ ਹਿੰਦ ਮਹਾਂਸਾਗਰ ਰਾਜਖੇਤਰ","lanh tho an gjo duong thuoc anh","críocha briotanacha an aigéin indiagh","britans'ki teritorii indijs'kogo okeanu","belayati hinda mahasagara ksetra","ब्रिटिश हिंद महासागरीय क्षेत्र","индийы фурды британийы территори","angilɛ ka ɛndu dugukolo","sese ti anglee na nguyaemae ti ennde","britisa hinda mahasagara ksetra","britaintɔwo ƒe india ƒudome nutome","sêse tî anglëe na ngûyämä tî ênnde","britse indiese oseaangebied","britanski teritorij indijskog oceana","terytorium brytyjskie oceanu indyjskiego","braitisba indiyana mahasagarara ancala","britenfo hɔn man wɔ india po no mu","territorio britanico de locián indico","britanska indookeanska teritorija","英屬印度洋領地","ဗြိတိသျှ အိန္ဒြိယ သမုဒ္ဒရာ ပိုင်နက်","briti india ookeani ala","ब्रिटीश हिंदी महासागर क्षेत्र","thuộc địa anh tại ấn độ dương","બ્રિટિશ ઇન્ડિયન ઓશન ટેરિટરી","brittiska indiska oceanöarna","ବ୍ରିଟିଶ୍ ଭାରତୀୟ ସାମୁଦ୍ରିକ କ୍ଷେତ୍ର","영국령 인도양 지역","британська територія в індійському океані","vretaniko edafos indikou okeanou","agbegbe okun india britani","baratanavi hida mahansagara rajakhetara","британска индоокеанска територия","brittiska indiska oceanoearna","territoires britanniques de l'ocean indien","britanska teritorija u indijskom okeanu","wilayah inggréh di samudra hindia","pirittis intiyap perunkatal pakuti","tiriad meurvor indez breizh-veur","британска територија у индијском океану","brittilaeinen intian valtameren alue","britischs territorium im indischn ozean","potu fonua moana ʻinitia fakapilitānia","britis bharatiya samudrika ksetra","território britânico do oceano índico","பிரித்தானிய இந்தியப் பெருங்கடல் மண்டலம்"],"toponym":"British Indian Ocean Territory","featureCode":"PCLD","countryCode":"IO","featureClass":"A","hierarchy":{"features":[{"geometry":null,"type":"Feature","properties":{"geoNameId":6255147,"toponym":"Asia","hierarchy":{"features":[],"type":"FeatureCollection"},"name":"indiana","locationType":null,"positions":[10],"type":"location"}}],"type":"FeatureCollection"},"name":"indiana","locationType":null,"positions":[10],"type":"location"}},{"geometry":{"coordinates":[-86.10109,38.60561],"type":"Point"},"type":"Feature","properties":{"geoNameId":4264334,"alternateNames":["sejlem","salem (indiana)","salem","سیلم، انڈیانا","salm","سالم","سالم، ایندیانا","сејлем","salm  ayndyana","сейлем"],"toponym":"Salem","featureCode":"PPLA2","countryCode":"US","featureClass":"P","hierarchy":{"features":[{"geometry":null,"type":"Feature","properties":{"geoNameId":4266588,"toponym":"Washington County","hierarchy":{"features":[],"type":"FeatureCollection"},"name":"indiana","locationType":null,"positions":[10],"type":"location"}},{"geometry":null,"type":"Feature","properties":{"geoNameId":4921868,"toponym":"Indiana","hierarchy":{"features":[],"type":"FeatureCollection"},"name":"indiana","locationType":null,"positions":[10],"type":"location"}},{"geometry":null,"type":"Feature","properties":{"geoNameId":6252001,"toponym":"United States","hierarchy":{"features":[],"type":"FeatureCollection"},"name":"indiana","locationType":null,"positions":[10],"type":"location"}},{"geometry":null,"type":"Feature","properties":{"geoNameId":6255149,"toponym":"North America","hierarchy":{"features":[],"type":"FeatureCollection"},"name":"indiana","locationType":null,"positions":[10],"type":"location"}}],"type":"FeatureCollection"},"name":"indiana","locationType":null,"positions":[10],"type":"location"}},{"geometry":{"coordinates":[-76.18268,44.30012],"type":"Point"},"type":"Feature","properties":{"geoNameId":5982681,"alternateNames":["indiana island"],"toponym":"Indiana Island","featureCode":"ISL","countryCode":"CA","featureClass":"T","hierarchy":{"features":[{"geometry":null,"type":"Feature","properties":{"geoNameId":6093943,"toponym":"Ontario","hierarchy":{"features":[],"type":"FeatureCollection"},"name":"indiana","locationType":null,"positions":[10],"type":"location"}},{"geometry":null,"type":"Feature","properties":{"geoNameId":6251999,"toponym":"Canada","hierarchy":{"features":[],"type":"FeatureCollection"},"name":"indiana","locationType":null,"positions":[10],"type":"location"}},{"geometry":null,"type":"Feature","properties":{"geoNameId":6255149,"toponym":"North America","hierarchy":{"features":[],"type":"FeatureCollection"},"name":"indiana","locationType":null,"positions":[10],"type":"location"}}],"type":"FeatureCollection"},"name":"indiana","locationType":null,"positions":[10],"type":"location"}},{"geometry":{"coordinates":[-72.85633,-3.82916],"type":"Point"},"type":"Feature","properties":{"geoNameId":8350638,"alternateNames":["indiana district"],"toponym":"Indiana District","featureCode":"ADM3","countryCode":"PE","featureClass":"A","hierarchy":{"features":[{"geometry":null,"type":"Feature","properties":{"geoNameId":3694873,"toponym":"Provincia de Maynas","hierarchy":{"features":[],"type":"FeatureCollection"},"name":"indiana","locationType":null,"positions":[10],"type":"location"}},{"geometry":null,"type":"Feature","properties":{"geoNameId":3695238,"toponym":"Loreto","hierarchy":{"features":[],"type":"FeatureCollection"},"name":"indiana","locationType":null,"positions":[10],"type":"location"}},{"geometry":null,"type":"Feature","properties":{"geoNameId":3932488,"toponym":"Peru","hierarchy":{"features":[],"type":"FeatureCollection"},"name":"indiana","locationType":null,"positions":[10],"type":"location"}},{"geometry":null,"type":"Feature","properties":{"geoNameId":6255150,"toponym":"South America","hierarchy":{"features":[],"type":"FeatureCollection"},"name":"indiana","locationType":null,"positions":[10],"type":"location"}}],"type":"FeatureCollection"},"name":"indiana","locationType":null,"positions":[10],"type":"location"}},{"geometry":{"coordinates":[-79.1552,40.62199],"type":"Point"},"type":"Feature","properties":{"geoNameId":5194878,"alternateNames":["borough of indiana"],"toponym":"Borough of Indiana","featureCode":"ADM3","countryCode":"US","featureClass":"A","hierarchy":{"features":[{"geometry":null,"type":"Feature","properties":{"geoNameId":5194872,"toponym":"Indiana County","hierarchy":{"features":[],"type":"FeatureCollection"},"name":"indiana","locationType":null,"positions":[10],"type":"location"}},{"geometry":null,"type":"Feature","properties":{"geoNameId":6254927,"toponym":"Pennsylvania","hierarchy":{"features":[],"type":"FeatureCollection"},"name":"indiana","locationType":null,"positions":[10],"type":"location"}},{"geometry":null,"type":"Feature","properties":{"geoNameId":6252001,"toponym":"United States","hierarchy":{"features":[],"type":"FeatureCollection"},"name":"indiana","locationType":null,"positions":[10],"type":"location"}},{"geometry":null,"type":"Feature","properties":{"geoNameId":6255149,"toponym":"North America","hierarchy":{"features":[],"type":"FeatureCollection"},"name":"indiana","locationType":null,"positions":[10],"type":"location"}}],"type":"FeatureCollection"},"name":"indiana","locationType":null,"positions":[10],"type":"location"}},{"geometry":{"coordinates":[-79.87366,40.57304],"type":"Point"},"type":"Feature","properties":{"geoNameId":5194879,"alternateNames":["township of indiana","indiana township"],"toponym":"Township of Indiana","featureCode":"ADM3","countryCode":"US","featureClass":"A","hierarchy":{"features":[{"geometry":null,"type":"Feature","properties":{"geoNameId":5178040,"toponym":"Allegheny County","hierarchy":{"features":[],"type":"FeatureCollection"},"name":"indiana","locationType":null,"positions":[10],"type":"location"}},{"geometry":null,"type":"Feature","properties":{"geoNameId":6254927,"toponym":"Pennsylvania","hierarchy":{"features":[],"type":"FeatureCollection"},"name":"indiana","locationType":null,"positions":[10],"type":"location"}},{"geometry":null,"type":"Feature","properties":{"geoNameId":6252001,"toponym":"United States","hierarchy":{"features":[],"type":"FeatureCollection"},"name":"indiana","locationType":null,"positions":[10],"type":"location"}},{"geometry":null,"type":"Feature","properties":{"geoNameId":6255149,"toponym":"North America","hierarchy":{"features":[],"type":"FeatureCollection"},"name":"indiana","locationType":null,"positions":[10],"type":"location"}}],"type":"FeatureCollection"},"name":"indiana","locationType":null,"positions":[10],"type":"location"}},{"geometry":{"coordinates":[-99.95211,39.50177],"type":"Point"},"type":"Feature","properties":{"geoNameId":4273417,"alternateNames":["township of indiana","indiana township"],"toponym":"Township of Indiana","featureCode":"ADM3","countryCode":"US","featureClass":"A","hierarchy":{"features":[{"geometry":null,"type":"Feature","properties":{"geoNameId":4272234,"toponym":"Graham County","hierarchy":{"features":[],"type":"FeatureCollection"},"name":"indiana","locationType":null,"positions":[10],"type":"location"}},{"geometry":null,"type":"Feature","properties":{"geoNameId":4273857,"toponym":"Kansas","hierarchy":{"features":[],"type":"FeatureCollection"},"name":"indiana","locationType":null,"positions":[10],"type":"location"}},{"geometry":null,"type":"Feature","properties":{"geoNameId":6252001,"toponym":"United States","hierarchy":{"features":[],"type":"FeatureCollection"},"name":"indiana","locationType":null,"positions":[10],"type":"location"}},{"geometry":null,"type":"Feature","properties":{"geoNameId":6255149,"toponym":"North America","hierarchy":{"features":[],"type":"FeatureCollection"},"name":"indiana","locationType":null,"positions":[10],"type":"location"}}],"type":"FeatureCollection"},"name":"indiana","locationType":null,"positions":[10],"type":"location"}},{"geometry":{"coordinates":[-98.20643,39.00147],"type":"Point"},"type":"Feature","properties":{"geoNameId":4273418,"alternateNames":["township of indiana","indiana township"],"toponym":"Township of Indiana","featureCode":"ADM3","countryCode":"US","featureClass":"A","hierarchy":{"features":[{"geometry":null,"type":"Feature","properties":{"geoNameId":4274455,"toponym":"Lincoln County","hierarchy":{"features":[],"type":"FeatureCollection"},"name":"indiana","locationType":null,"positions":[10],"type":"location"}},{"geometry":null,"type":"Feature","properties":{"geoNameId":4273857,"toponym":"Kansas","hierarchy":{"features":[],"type":"FeatureCollection"},"name":"indiana","locationType":null,"positions":[10],"type":"location"}},{"geometry":null,"type":"Feature","properties":{"geoNameId":6252001,"toponym":"United States","hierarchy":{"features":[],"type":"FeatureCollection"},"name":"indiana","locationType":null,"positions":[10],"type":"location"}},{"geometry":null,"type":"Feature","properties":{"geoNameId":6255149,"toponym":"North America","hierarchy":{"features":[],"type":"FeatureCollection"},"name":"indiana","locationType":null,"positions":[10],"type":"location"}}],"type":"FeatureCollection"},"name":"indiana","locationType":null,"positions":[10],"type":"location"}},{"geometry":{"coordinates":[-93.03837,41.21036],"type":"Point"},"type":"Feature","properties":{"geoNameId":4861715,"alternateNames":["township of indiana","indiana township"],"toponym":"Township of Indiana","featureCode":"ADM3","countryCode":"US","featureClass":"A","hierarchy":{"features":[{"geometry":null,"type":"Feature","properties":{"geoNameId":4866274,"toponym":"Marion County","hierarchy":{"features":[],"type":"FeatureCollection"},"name":"indiana","locationType":null,"positions":[10],"type":"location"}},{"geometry":null,"type":"Feature","properties":{"geoNameId":4862182,"toponym":"Iowa","hierarchy":{"features":[],"type":"FeatureCollection"},"name":"indiana","locationType":null,"positions":[10],"type":"location"}},{"geometry":null,"type":"Feature","properties":{"geoNameId":6252001,"toponym":"United States","hierarchy":{"features":[],"type":"FeatureCollection"},"name":"indiana","locationType":null,"positions":[10],"type":"location"}},{"geometry":null,"type":"Feature","properties":{"geoNameId":6255149,"toponym":"North America","hierarchy":{"features":[],"type":"FeatureCollection"},"name":"indiana","locationType":null,"positions":[10],"type":"location"}}],"type":"FeatureCollection"},"name":"indiana","locationType":null,"positions":[10],"type":"location"}},{"geometry":{"coordinates":[-83.45726,10.12861],"type":"Point"},"type":"Feature","properties":{"geoNameId":3623401,"alternateNames":["indiana tres"],"toponym":"Indiana Tres","featureCode":"PPL","countryCode":"CR","featureClass":"P","hierarchy":{"features":[{"geometry":null,"type":"Feature","properties":{"geoNameId":3621439,"toponym":"Siquirres","hierarchy":{"features":[],"type":"FeatureCollection"},"name":"indiana","locationType":null,"positions":[10],"type":"location"}},{"geometry":null,"type":"Feature","properties":{"geoNameId":3623064,"toponym":"Provincia de Limón","hierarchy":{"features":[],"type":"FeatureCollection"},"name":"indiana","locationType":null,"positions":[10],"type":"location"}},{"geometry":null,"type":"Feature","properties":{"geoNameId":3624060,"toponym":"Costa Rica","hierarchy":{"features":[],"type":"FeatureCollection"},"name":"indiana","locationType":null,"positions":[10],"type":"location"}},{"geometry":null,"type":"Feature","properties":{"geoNameId":6255149,"toponym":"North America","hierarchy":{"features":[],"type":"FeatureCollection"},"name":"indiana","locationType":null,"positions":[10],"type":"location"}}],"type":"FeatureCollection"},"name":"indiana","locationType":null,"positions":[10],"type":"location"}},{"geometry":{"coordinates":[-83.47745,10.11599],"type":"Point"},"type":"Feature","properties":{"geoNameId":3623402,"alternateNames":["indiana dos"],"toponym":"Indiana Dos","featureCode":"PPL","countryCode":"CR","featureClass":"P","hierarchy":{"features":[{"geometry":null,"type":"Feature","properties":{"geoNameId":3621439,"toponym":"Siquirres","hierarchy":{"features":[],"type":"FeatureCollection"},"name":"indiana","locationType":null,"positions":[10],"type":"location"}},{"geometry":null,"type":"Feature","properties":{"geoNameId":3623064,"toponym":"Provincia de Limón","hierarchy":{"features":[],"type":"FeatureCollection"},"name":"indiana","locationType":null,"positions":[10],"type":"location"}},{"geometry":null,"type":"Feature","properties":{"geoNameId":3624060,"toponym":"Costa Rica","hierarchy":{"features":[],"type":"FeatureCollection"},"name":"indiana","locationType":null,"positions":[10],"type":"location"}},{"geometry":null,"type":"Feature","properties":{"geoNameId":6255149,"toponym":"North America","hierarchy":{"features":[],"type":"FeatureCollection"},"name":"indiana","locationType":null,"positions":[10],"type":"location"}}],"type":"FeatureCollection"},"name":"indiana","locationType":null,"positions":[10],"type":"location"}},{"geometry":{"coordinates":[-72.98226,10.43749],"type":"Point"},"type":"Feature","properties":{"geoNameId":3757991,"alternateNames":["la indiana"],"toponym":"La Indiana","featureCode":"PPL","countryCode":"CO","featureClass":"P","hierarchy":{"features":[{"geometry":null,"type":"Feature","properties":{"geoNameId":9172388,"toponym":"Urumita","hierarchy":{"features":[],"type":"FeatureCollection"},"name":"indiana","locationType":null,"positions":[10],"type":"location"}},{"geometry":null,"type":"Feature","properties":{"geoNameId":3678847,"toponym":"Departamento de La Guajira","hierarchy":{"features":[],"type":"FeatureCollection"},"name":"indiana","locationType":null,"positions":[10],"type":"location"}},{"geometry":null,"type":"Feature","properties":{"geoNameId":3686110,"toponym":"Colombia","hierarchy":{"features":[],"type":"FeatureCollection"},"name":"indiana","locationType":null,"positions":[10],"type":"location"}},{"geometry":null,"type":"Feature","properties":{"geoNameId":6255150,"toponym":"South America","hierarchy":{"features":[],"type":"FeatureCollection"},"name":"indiana","locationType":null,"positions":[10],"type":"location"}}],"type":"FeatureCollection"},"name":"indiana","locationType":null,"positions":[10],"type":"location"}},{"geometry":{"coordinates":[-87.83333,14.21667],"type":"Point"},"type":"Feature","properties":{"geoNameId":3607724,"alternateNames":["la indiana"],"toponym":"La Indiana","featureCode":"PPL","countryCode":"HN","featureClass":"P","hierarchy":{"features":[{"geometry":null,"type":"Feature","properties":{"geoNameId":3607251,"toponym":"Departamento de La Paz","hierarchy":{"features":[],"type":"FeatureCollection"},"name":"indiana","locationType":null,"positions":[10],"type":"location"}},{"geometry":null,"type":"Feature","properties":{"geoNameId":3608932,"toponym":"Honduras","hierarchy":{"features":[],"type":"FeatureCollection"},"name":"indiana","locationType":null,"positions":[10],"type":"location"}},{"geometry":null,"type":"Feature","properties":{"geoNameId":6255149,"toponym":"North America","hierarchy":{"features":[],"type":"FeatureCollection"},"name":"indiana","locationType":null,"positions":[10],"type":"location"}}],"type":"FeatureCollection"},"name":"indiana","locationType":null,"positions":[10],"type":"location"}},{"geometry":{"coordinates":[-86.76807,40.79143],"type":"Point"},"type":"Feature","properties":{"geoNameId":4921834,"alternateNames":["indiana beach"],"toponym":"Indiana Beach","featureCode":"PPL","countryCode":"US","featureClass":"P","hierarchy":{"features":[{"geometry":null,"type":"Feature","properties":{"geoNameId":4928184,"toponym":"White County","hierarchy":{"features":[],"type":"FeatureCollection"},"name":"indiana","locationType":null,"positions":[10],"type":"location"}},{"geometry":null,"type":"Feature","properties":{"geoNameId":4921868,"toponym":"Indiana","hierarchy":{"features":[],"type":"FeatureCollection"},"name":"indiana","locationType":null,"positions":[10],"type":"location"}},{"geometry":null,"type":"Feature","properties":{"geoNameId":6252001,"toponym":"United States","hierarchy":{"features":[],"type":"FeatureCollection"},"name":"indiana","locationType":null,"positions":[10],"type":"location"}},{"geometry":null,"type":"Feature","properties":{"geoNameId":6255149,"toponym":"North America","hierarchy":{"features":[],"type":"FeatureCollection"},"name":"indiana","locationType":null,"positions":[10],"type":"location"}}],"type":"FeatureCollection"},"name":"indiana","locationType":null,"positions":[10],"type":"location"}},{"geometry":{"coordinates":[-87.44532,41.64059],"type":"Point"},"type":"Feature","properties":{"geoNameId":4921838,"alternateNames":["indiana harbor"],"toponym":"Indiana Harbor","featureCode":"PPL","countryCode":"US","featureClass":"P","hierarchy":{"features":[{"geometry":null,"type":"Feature","properties":{"geoNameId":4922493,"toponym":"Lake County","hierarchy":{"features":[],"type":"FeatureCollection"},"name":"indiana","locationType":null,"positions":[10],"type":"location"}},{"geometry":null,"type":"Feature","properties":{"geoNameId":4921868,"toponym":"Indiana","hierarchy":{"features":[],"type":"FeatureCollection"},"name":"indiana","locationType":null,"positions":[10],"type":"location"}},{"geometry":null,"type":"Feature","properties":{"geoNameId":6252001,"toponym":"United States","hierarchy":{"features":[],"type":"FeatureCollection"},"name":"indiana","locationType":null,"positions":[10],"type":"location"}},{"geometry":null,"type":"Feature","properties":{"geoNameId":6255149,"toponym":"North America","hierarchy":{"features":[],"type":"FeatureCollection"},"name":"indiana","locationType":null,"positions":[10],"type":"location"}}],"type":"FeatureCollection"},"name":"indiana","locationType":null,"positions":[10],"type":"location"}},{"geometry":{"coordinates":[-73.05,-2.5],"type":"Point"},"type":"Feature","properties":{"geoNameId":3696225,"alternateNames":["indiana, putamayo"],"toponym":"Indiana, Putamayo","featureCode":"PPL","countryCode":"PE","featureClass":"P","hierarchy":{"features":[{"geometry":null,"type":"Feature","properties":{"geoNameId":3694873,"toponym":"Provincia de Maynas","hierarchy":{"features":[],"type":"FeatureCollection"},"name":"indiana","locationType":null,"positions":[10],"type":"location"}},{"geometry":null,"type":"Feature","properties":{"geoNameId":3695238,"toponym":"Loreto","hierarchy":{"features":[],"type":"FeatureCollection"},"name":"indiana","locationType":null,"positions":[10],"type":"location"}},{"geometry":null,"type":"Feature","properties":{"geoNameId":3932488,"toponym":"Peru","hierarchy":{"features":[],"type":"FeatureCollection"},"name":"indiana","locationType":null,"positions":[10],"type":"location"}},{"geometry":null,"type":"Feature","properties":{"geoNameId":6255150,"toponym":"South America","hierarchy":{"features":[],"type":"FeatureCollection"},"name":"indiana","locationType":null,"positions":[10],"type":"location"}}],"type":"FeatureCollection"},"name":"indiana","locationType":null,"positions":[10],"type":"location"}},{"geometry":{"coordinates":[-118.14452,34.14778],"type":"Point"},"type":"Feature","properties":{"geoNameId":5381396,"alternateNames":["горад пасадэна","แพซาดีนา","पासादेना","باسادينا","пасадина","パサデナ","pa sa di na","пасадена","pasedena","pasantina","패서디나","پاساڈینا","پاسادینا، کالیفرنیا","jpd","basadyna","pasadyna  kalyfrnya","gorad pasadehna","pasadena","psdynh","πασαντίνα","փասադենա","pasadina","paeseodina","פסדינה","indiana colony","帕萨迪纳","pasadīna"],"toponym":"Pasadena","featureCode":"PPL","countryCode":"US","featureClass":"P","hierarchy":{"features":[{"geometry":null,"type":"Feature","properties":{"geoNameId":5368381,"toponym":"Los Angeles County","hierarchy":{"features":[],"type":"FeatureCollection"},"name":"indiana","locationType":null,"positions":[10],"type":"location"}},{"geometry":null,"type":"Feature","properties":{"geoNameId":5332921,"toponym":"California","hierarchy":{"features":[],"type":"FeatureCollection"},"name":"indiana","locationType":null,"positions":[10],"type":"location"}},{"geometry":null,"type":"Feature","properties":{"geoNameId":6252001,"toponym":"United States","hierarchy":{"features":[],"type":"FeatureCollection"},"name":"indiana","locationType":null,"positions":[10],"type":"location"}},{"geometry":null,"type":"Feature","properties":{"geoNameId":6255149,"toponym":"North America","hierarchy":{"features":[],"type":"FeatureCollection"},"name":"indiana","locationType":null,"positions":[10],"type":"location"}}],"type":"FeatureCollection"},"name":"indiana","locationType":null,"positions":[10],"type":"location"}},{"geometry":{"coordinates":[-85.33829,38.82589],"type":"Point"},"type":"Feature","properties":{"geoNameId":4255750,"alternateNames":["indiana kentucky","china"],"toponym":"China","featureCode":"PPL","countryCode":"US","featureClass":"P","hierarchy":{"features":[{"geometry":null,"type":"Feature","properties":{"geoNameId":4259654,"toponym":"Jefferson County","hierarchy":{"features":[],"type":"FeatureCollection"},"name":"indiana","locationType":null,"positions":[10],"type":"location"}},{"geometry":null,"type":"Feature","properties":{"geoNameId":4921868,"toponym":"Indiana","hierarchy":{"features":[],"type":"FeatureCollection"},"name":"indiana","locationType":null,"positions":[10],"type":"location"}},{"geometry":null,"type":"Feature","properties":{"geoNameId":6252001,"toponym":"United States","hierarchy":{"features":[],"type":"FeatureCollection"},"name":"indiana","locationType":null,"positions":[10],"type":"location"}},{"geometry":null,"type":"Feature","properties":{"geoNameId":6255149,"toponym":"North America","hierarchy":{"features":[],"type":"FeatureCollection"},"name":"indiana","locationType":null,"positions":[10],"type":"location"}}],"type":"FeatureCollection"},"name":"indiana","locationType":null,"positions":[10],"type":"location"}},{"geometry":{"coordinates":[-120.79911,39.35934],"type":"Point"},"type":"Feature","properties":{"geoNameId":5407287,"alternateNames":["vashington","вашингтон","washington","indiana camp"],"toponym":"Washington","featureCode":"PPL","countryCode":"US","featureClass":"P","hierarchy":{"features":[{"geometry":null,"type":"Feature","properties":{"geoNameId":5376509,"toponym":"Nevada County","hierarchy":{"features":[],"type":"FeatureCollection"},"name":"indiana","locationType":null,"positions":[10],"type":"location"}},{"geometry":null,"type":"Feature","properties":{"geoNameId":5332921,"toponym":"California","hierarchy":{"features":[],"type":"FeatureCollection"},"name":"indiana","locationType":null,"positions":[10],"type":"location"}},{"geometry":null,"type":"Feature","properties":{"geoNameId":6252001,"toponym":"United States","hierarchy":{"features":[],"type":"FeatureCollection"},"name":"indiana","locationType":null,"positions":[10],"type":"location"}},{"geometry":null,"type":"Feature","properties":{"geoNameId":6255149,"toponym":"North America","hierarchy":{"features":[],"type":"FeatureCollection"},"name":"indiana","locationType":null,"positions":[10],"type":"location"}}],"type":"FeatureCollection"},"name":"indiana","locationType":null,"positions":[10],"type":"location"}},{"geometry":{"coordinates":[-87.28751,40.33865],"type":"Point"},"type":"Feature","properties":{"geoNameId":4922416,"alternateNames":["cameron springs","indiana mineral springs","kramer"],"toponym":"Kramer","featureCode":"PPL","countryCode":"US","featureClass":"P","hierarchy":{"features":[{"geometry":null,"type":"Feature","properties":{"geoNameId":4927846,"toponym":"Warren County","hierarchy":{"features":[],"type":"FeatureCollection"},"name":"indiana","locationType":null,"positions":[10],"type":"location"}},{"geometry":null,"type":"Feature","properties":{"geoNameId":4921868,"toponym":"Indiana","hierarchy":{"features":[],"type":"FeatureCollection"},"name":"indiana","locationType":null,"positions":[10],"type":"location"}},{"geometry":null,"type":"Feature","properties":{"geoNameId":6252001,"toponym":"United States","hierarchy":{"features":[],"type":"FeatureCollection"},"name":"indiana","locationType":null,"positions":[10],"type":"location"}},{"geometry":null,"type":"Feature","properties":{"geoNameId":6255149,"toponym":"North America","hierarchy":{"features":[],"type":"FeatureCollection"},"name":"indiana","locationType":null,"positions":[10],"type":"location"}}],"type":"FeatureCollection"},"name":"indiana","locationType":null,"positions":[10],"type":"location"}},{"geometry":{"coordinates":[-120.85577,39.18073],"type":"Point"},"type":"Feature","properties":{"geoNameId":5352778,"alternateNames":["gold run","indiana hill","mountain springs"],"toponym":"Gold Run","featureCode":"PPL","countryCode":"US","featureClass":"P","hierarchy":{"features":[{"geometry":null,"type":"Feature","properties":{"geoNameId":5383537,"toponym":"Placer County","hierarchy":{"features":[],"type":"FeatureCollection"},"name":"indiana","locationType":null,"positions":[10],"type":"location"}},{"geometry":null,"type":"Feature","properties":{"geoNameId":5332921,"toponym":"California","hierarchy":{"features":[],"type":"FeatureCollection"},"name":"indiana","locationType":null,"positions":[10],"type":"location"}},{"geometry":null,"type":"Feature","properties":{"geoNameId":6252001,"toponym":"United States","hierarchy":{"features":[],"type":"FeatureCollection"},"name":"indiana","locationType":null,"positions":[10],"type":"location"}},{"geometry":null,"type":"Feature","properties":{"geoNameId":6255149,"toponym":"North America","hierarchy":{"features":[],"type":"FeatureCollection"},"name":"indiana","locationType":null,"positions":[10],"type":"location"}}],"type":"FeatureCollection"},"name":"indiana","locationType":null,"positions":[10],"type":"location"}},{"geometry":{"coordinates":[44,-19.8],"type":"Point"},"type":"Feature","properties":{"geoNameId":1064092,"alternateNames":["i’indien sandbar","torak' indiana","torak’ indiana","i'indien sandbar"],"toponym":"Torak’ Indiana","featureCode":"BNK","countryCode":"MG","featureClass":"H","hierarchy":{"features":[{"geometry":null,"type":"Feature","properties":{"geoNameId":1062947,"toponym":"Madagascar","hierarchy":{"features":[],"type":"FeatureCollection"},"name":"indiana","locationType":null,"positions":[10],"type":"location"}},{"geometry":null,"type":"Feature","properties":{"geoNameId":6255146,"toponym":"Africa","hierarchy":{"features":[],"type":"FeatureCollection"},"name":"indiana","locationType":null,"positions":[10],"type":"location"}}],"type":"FeatureCollection"},"name":"indiana","locationType":null,"positions":[10],"type":"location"}},{"geometry":{"coordinates":[-86.52639,39.16616],"type":"Point"},"type":"Feature","properties":{"geoNameId":4259408,"alternateNames":["indiana university","indiana college","indiana state seminary"],"toponym":"Indiana University","featureCode":"SCH","countryCode":"US","featureClass":"S","hierarchy":{"features":[{"geometry":null,"type":"Feature","properties":{"geoNameId":4261526,"toponym":"Monroe County","hierarchy":{"features":[],"type":"FeatureCollection"},"name":"indiana","locationType":null,"positions":[10],"type":"location"}},{"geometry":null,"type":"Feature","properties":{"geoNameId":4921868,"toponym":"Indiana","hierarchy":{"features":[],"type":"FeatureCollection"},"name":"indiana","locationType":null,"positions":[10],"type":"location"}},{"geometry":null,"type":"Feature","properties":{"geoNameId":6252001,"toponym":"United States","hierarchy":{"features":[],"type":"FeatureCollection"},"name":"indiana","locationType":null,"positions":[10],"type":"location"}},{"geometry":null,"type":"Feature","properties":{"geoNameId":6255149,"toponym":"North America","hierarchy":{"features":[],"type":"FeatureCollection"},"name":"indiana","locationType":null,"positions":[10],"type":"location"}}],"type":"FeatureCollection"},"name":"indiana","locationType":null,"positions":[10],"type":"location"}},{"geometry":{"coordinates":[-91.59452,48.0134],"type":"Point"},"type":"Feature","properties":{"geoNameId":5031265,"alternateNames":["bass lake","indiana lake"],"toponym":"Indiana Lake","featureCode":"LK","countryCode":"US","featureClass":"H","hierarchy":{"features":[{"geometry":null,"type":"Feature","properties":{"geoNameId":5033738,"toponym":"Lake County","hierarchy":{"features":[],"type":"FeatureCollection"},"name":"indiana","locationType":null,"positions":[10],"type":"location"}},{"geometry":null,"type":"Feature","properties":{"geoNameId":5037779,"toponym":"Minnesota","hierarchy":{"features":[],"type":"FeatureCollection"},"name":"indiana","locationType":null,"positions":[10],"type":"location"}},{"geometry":null,"type":"Feature","properties":{"geoNameId":6252001,"toponym":"United States","hierarchy":{"features":[],"type":"FeatureCollection"},"name":"indiana","locationType":null,"positions":[10],"type":"location"}},{"geometry":null,"type":"Feature","properties":{"geoNameId":6255149,"toponym":"North America","hierarchy":{"features":[],"type":"FeatureCollection"},"name":"indiana","locationType":null,"positions":[10],"type":"location"}}],"type":"FeatureCollection"},"name":"indiana","locationType":null,"positions":[10],"type":"location"}},{"geometry":{"coordinates":[-111.19745,46.63411],"type":"Point"},"type":"Feature","properties":{"geoNameId":5658777,"alternateNames":["indiana creek","indiana gulch"],"toponym":"Indiana Creek","featureCode":"STM","countryCode":"US","featureClass":"H","hierarchy":{"features":[{"geometry":null,"type":"Feature","properties":{"geoNameId":5665612,"toponym":"Meagher County","hierarchy":{"features":[],"type":"FeatureCollection"},"name":"indiana","locationType":null,"positions":[10],"type":"location"}},{"geometry":null,"type":"Feature","properties":{"geoNameId":5667009,"toponym":"Montana","hierarchy":{"features":[],"type":"FeatureCollection"},"name":"indiana","locationType":null,"positions":[10],"type":"location"}},{"geometry":null,"type":"Feature","properties":{"geoNameId":6252001,"toponym":"United States","hierarchy":{"features":[],"type":"FeatureCollection"},"name":"indiana","locationType":null,"positions":[10],"type":"location"}},{"geometry":null,"type":"Feature","properties":{"geoNameId":6255149,"toponym":"North America","hierarchy":{"features":[],"type":"FeatureCollection"},"name":"indiana","locationType":null,"positions":[10],"type":"location"}}],"type":"FeatureCollection"},"name":"indiana","locationType":null,"positions":[10],"type":"location"}},{"geometry":{"coordinates":[-111.25079,46.95828],"type":"Point"},"type":"Feature","properties":{"geoNameId":5658778,"alternateNames":["indian gulch","indiana gulch"],"toponym":"Indiana Gulch","featureCode":"VAL","countryCode":"US","featureClass":"T","hierarchy":{"features":[{"geometry":null,"type":"Feature","properties":{"geoNameId":5665612,"toponym":"Meagher County","hierarchy":{"features":[],"type":"FeatureCollection"},"name":"indiana","locationType":null,"positions":[10],"type":"location"}},{"geometry":null,"type":"Feature","properties":{"geoNameId":5667009,"toponym":"Montana","hierarchy":{"features":[],"type":"FeatureCollection"},"name":"indiana","locationType":null,"positions":[10],"type":"location"}},{"geometry":null,"type":"Feature","properties":{"geoNameId":6252001,"toponym":"United States","hierarchy":{"features":[],"type":"FeatureCollection"},"name":"indiana","locationType":null,"positions":[10],"type":"location"}},{"geometry":null,"type":"Feature","properties":{"geoNameId":6255149,"toponym":"North America","hierarchy":{"features":[],"type":"FeatureCollection"},"name":"indiana","locationType":null,"positions":[10],"type":"location"}}],"type":"FeatureCollection"},"name":"indiana","locationType":null,"positions":[10],"type":"location"}},{"geometry":{"coordinates":[12.67576,43.99221],"type":"Point"},"type":"Feature","properties":{"geoNameId":10540614,"alternateNames":["indiana golf"],"toponym":"Indiana Golf","featureCode":"AMUS","countryCode":"IT","featureClass":"L","hierarchy":{"features":[{"geometry":null,"type":"Feature","properties":{"geoNameId":6457404,"toponym":"Provincia di Rimini","hierarchy":{"features":[],"type":"FeatureCollection"},"name":"indiana","locationType":null,"positions":[10],"type":"location"}},{"geometry":null,"type":"Feature","properties":{"geoNameId":3177401,"toponym":"Emilia-Romagna","hierarchy":{"features":[],"type":"FeatureCollection"},"name":"indiana","locationType":null,"positions":[10],"type":"location"}},{"geometry":null,"type":"Feature","properties":{"geoNameId":3175395,"toponym":"Italy","hierarchy":{"features":[],"type":"FeatureCollection"},"name":"indiana","locationType":null,"positions":[10],"type":"location"}},{"geometry":null,"type":"Feature","properties":{"geoNameId":6255148,"toponym":"Europe","hierarchy":{"features":[],"type":"FeatureCollection"},"name":"indiana","locationType":null,"positions":[10],"type":"location"}}],"type":"FeatureCollection"},"name":"indiana","locationType":null,"positions":[10],"type":"location"}},{"geometry":{"coordinates":[-75.3,20.35],"type":"Point"},"type":"Feature","properties":{"geoNameId":3553425,"alternateNames":["la indiana"],"toponym":"La Indiana","featureCode":"LCTY","countryCode":"CU","featureClass":"L","hierarchy":{"features":[{"geometry":null,"type":"Feature","properties":{"geoNameId":3557685,"toponym":"Provincia de Guantánamo","hierarchy":{"features":[],"type":"FeatureCollection"},"name":"indiana","locationType":null,"positions":[10],"type":"location"}},{"geometry":null,"type":"Feature","properties":{"geoNameId":3562981,"toponym":"Cuba","hierarchy":{"features":[],"type":"FeatureCollection"},"name":"indiana","locationType":null,"positions":[10],"type":"location"}},{"geometry":null,"type":"Feature","properties":{"geoNameId":6255149,"toponym":"North America","hierarchy":{"features":[],"type":"FeatureCollection"},"name":"indiana","locationType":null,"positions":[10],"type":"location"}}],"type":"FeatureCollection"},"name":"indiana","locationType":null,"positions":[10],"type":"location"}},{"geometry":{"coordinates":[-68.95,-20.65],"type":"Point"},"type":"Feature","properties":{"geoNameId":3887264,"alternateNames":["quebrada indiana"],"toponym":"Quebrada Indiana","featureCode":"STMI","countryCode":"CL","featureClass":"H","hierarchy":{"features":[{"geometry":null,"type":"Feature","properties":{"geoNameId":3870116,"toponym":"Región de Tarapacá","hierarchy":{"features":[],"type":"FeatureCollection"},"name":"indiana","locationType":null,"positions":[10],"type":"location"}},{"geometry":null,"type":"Feature","properties":{"geoNameId":3895114,"toponym":"Chile","hierarchy":{"features":[],"type":"FeatureCollection"},"name":"indiana","locationType":null,"positions":[10],"type":"location"}},{"geometry":null,"type":"Feature","properties":{"geoNameId":6255150,"toponym":"South America","hierarchy":{"features":[],"type":"FeatureCollection"},"name":"indiana","locationType":null,"positions":[10],"type":"location"}}],"type":"FeatureCollection"},"name":"indiana","locationType":null,"positions":[10],"type":"location"}},{"geometry":{"coordinates":[-70.37989,-27.07963],"type":"Point"},"type":"Feature","properties":{"geoNameId":11191389,"alternateNames":["sierra indiana"],"toponym":"Sierra Indiana","featureCode":"MTS","countryCode":"CL","featureClass":"T","hierarchy":{"features":[{"geometry":null,"type":"Feature","properties":{"geoNameId":3899191,"toponym":"Atacama","hierarchy":{"features":[],"type":"FeatureCollection"},"name":"indiana","locationType":null,"positions":[10],"type":"location"}},{"geometry":null,"type":"Feature","properties":{"geoNameId":3895114,"toponym":"Chile","hierarchy":{"features":[],"type":"FeatureCollection"},"name":"indiana","locationType":null,"positions":[10],"type":"location"}},{"geometry":null,"type":"Feature","properties":{"geoNameId":6255150,"toponym":"South America","hierarchy":{"features":[],"type":"FeatureCollection"},"name":"indiana","locationType":null,"positions":[10],"type":"location"}}],"type":"FeatureCollection"},"name":"indiana","locationType":null,"positions":[10],"type":"location"}},{"geometry":{"coordinates":[-59.68333,-24.86667],"type":"Point"},"type":"Feature","properties":{"geoNameId":3432431,"alternateNames":["la indiana"],"toponym":"La Indiana","featureCode":"HSE","countryCode":"AR","featureClass":"S","hierarchy":{"features":[{"geometry":null,"type":"Feature","properties":{"geoNameId":3430084,"toponym":"Departamento de Patiño","hierarchy":{"features":[],"type":"FeatureCollection"},"name":"indiana","locationType":null,"positions":[10],"type":"location"}},{"geometry":null,"type":"Feature","properties":{"geoNameId":3433896,"toponym":"Formosa Province","hierarchy":{"features":[],"type":"FeatureCollection"},"name":"indiana","locationType":null,"positions":[10],"type":"location"}},{"geometry":null,"type":"Feature","properties":{"geoNameId":3865483,"toponym":"Argentina","hierarchy":{"features":[],"type":"FeatureCollection"},"name":"indiana","locationType":null,"positions":[10],"type":"location"}},{"geometry":null,"type":"Feature","properties":{"geoNameId":6255150,"toponym":"South America","hierarchy":{"features":[],"type":"FeatureCollection"},"name":"indiana","locationType":null,"positions":[10],"type":"location"}}],"type":"FeatureCollection"},"name":"indiana","locationType":null,"positions":[10],"type":"location"}},{"geometry":{"coordinates":[31.21714,30.04326],"type":"Point"},"type":"Feature","properties":{"geoNameId":9953282,"alternateNames":["indiana dokki"],"toponym":"Indiana Dokki","featureCode":"HTL","countryCode":"EG","featureClass":"S","hierarchy":{"features":[{"geometry":null,"type":"Feature","properties":{"geoNameId":360997,"toponym":"Muḩāfaz̧at al Jīzah","hierarchy":{"features":[],"type":"FeatureCollection"},"name":"indiana","locationType":null,"positions":[10],"type":"location"}},{"geometry":null,"type":"Feature","properties":{"geoNameId":357994,"toponym":"Egypt","hierarchy":{"features":[],"type":"FeatureCollection"},"name":"indiana","locationType":null,"positions":[10],"type":"location"}},{"geometry":null,"type":"Feature","properties":{"geoNameId":6255146,"toponym":"Africa","hierarchy":{"features":[],"type":"FeatureCollection"},"name":"indiana","locationType":null,"positions":[10],"type":"location"}}],"type":"FeatureCollection"},"name":"indiana","locationType":null,"positions":[10],"type":"location"}},{"geometry":{"coordinates":[31.20021,30.02661],"type":"Point"},"type":"Feature","properties":{"geoNameId":10227596,"alternateNames":["indiana cairo"],"toponym":"Indiana Cairo","featureCode":"HTL","countryCode":"EG","featureClass":"S","hierarchy":{"features":[{"geometry":null,"type":"Feature","properties":{"geoNameId":360997,"toponym":"Muḩāfaz̧at al Jīzah","hierarchy":{"features":[],"type":"FeatureCollection"},"name":"indiana","locationType":null,"positions":[10],"type":"location"}},{"geometry":null,"type":"Feature","properties":{"geoNameId":357994,"toponym":"Egypt","hierarchy":{"features":[],"type":"FeatureCollection"},"name":"indiana","locationType":null,"positions":[10],"type":"location"}},{"geometry":null,"type":"Feature","properties":{"geoNameId":6255146,"toponym":"Africa","hierarchy":{"features":[],"type":"FeatureCollection"},"name":"indiana","locationType":null,"positions":[10],"type":"location"}}],"type":"FeatureCollection"},"name":"indiana","locationType":null,"positions":[10],"type":"location"}},{"geometry":{"coordinates":[115.44806,-8.66855],"type":"Point"},"type":"Feature","properties":{"geoNameId":10106872,"alternateNames":["indiana kenanga"],"toponym":"Indiana Kenanga","featureCode":"HTL","countryCode":"ID","featureClass":"S","hierarchy":{"features":[{"geometry":null,"type":"Feature","properties":{"geoNameId":1643084,"toponym":"Indonesia","hierarchy":{"features":[],"type":"FeatureCollection"},"name":"indiana","locationType":null,"positions":[10],"type":"location"}},{"geometry":null,"type":"Feature","properties":{"geoNameId":6255147,"toponym":"Asia","hierarchy":{"features":[],"type":"FeatureCollection"},"name":"indiana","locationType":null,"positions":[10],"type":"location"}}],"type":"FeatureCollection"},"name":"indiana","locationType":null,"positions":[10],"type":"location"}},{"geometry":{"coordinates":[-77.02081,38.89428],"type":"Point"},"type":"Feature","properties":{"geoNameId":4139165,"alternateNames":["indiana building"],"toponym":"Indiana Building","featureCode":"BLDG","countryCode":"US","featureClass":"S","hierarchy":{"features":[{"geometry":null,"type":"Feature","properties":{"geoNameId":4140987,"toponym":"Washington County","hierarchy":{"features":[],"type":"FeatureCollection"},"name":"indiana","locationType":null,"positions":[10],"type":"location"}},{"geometry":null,"type":"Feature","properties":{"geoNameId":4138106,"toponym":"District of Columbia","hierarchy":{"features":[],"type":"FeatureCollection"},"name":"indiana","locationType":null,"positions":[10],"type":"location"}},{"geometry":null,"type":"Feature","properties":{"geoNameId":6252001,"toponym":"United States","hierarchy":{"features":[],"type":"FeatureCollection"},"name":"indiana","locationType":null,"positions":[10],"type":"location"}},{"geometry":null,"type":"Feature","properties":{"geoNameId":6255149,"toponym":"North America","hierarchy":{"features":[],"type":"FeatureCollection"},"name":"indiana","locationType":null,"positions":[10],"type":"location"}}],"type":"FeatureCollection"},"name":"indiana","locationType":null,"positions":[10],"type":"location"}},{"geometry":{"coordinates":[-86.01221,40.14837],"type":"Point"},"type":"Feature","properties":{"geoNameId":4921833,"alternateNames":["indiana academy"],"toponym":"Indiana Academy","featureCode":"SCH","countryCode":"US","featureClass":"S","hierarchy":{"features":[{"geometry":null,"type":"Feature","properties":{"geoNameId":4921085,"toponym":"Hamilton County","hierarchy":{"features":[],"type":"FeatureCollection"},"name":"indiana","locationType":null,"positions":[10],"type":"location"}},{"geometry":null,"type":"Feature","properties":{"geoNameId":4921868,"toponym":"Indiana","hierarchy":{"features":[],"type":"FeatureCollection"},"name":"indiana","locationType":null,"positions":[10],"type":"location"}},{"geometry":null,"type":"Feature","properties":{"geoNameId":6252001,"toponym":"United States","hierarchy":{"features":[],"type":"FeatureCollection"},"name":"indiana","locationType":null,"positions":[10],"type":"location"}},{"geometry":null,"type":"Feature","properties":{"geoNameId":6255149,"toponym":"North America","hierarchy":{"features":[],"type":"FeatureCollection"},"name":"indiana","locationType":null,"positions":[10],"type":"location"}}],"type":"FeatureCollection"},"name":"indiana","locationType":null,"positions":[10],"type":"location"}},{"geometry":{"coordinates":[-86.24112,41.47838],"type":"Point"},"type":"Feature","properties":{"geoNameId":4921835,"alternateNames":["indiana chapel"],"toponym":"Indiana Chapel","featureCode":"CH","countryCode":"US","featureClass":"S","hierarchy":{"features":[{"geometry":null,"type":"Feature","properties":{"geoNameId":4923252,"toponym":"Marshall County","hierarchy":{"features":[],"type":"FeatureCollection"},"name":"indiana","locationType":null,"positions":[10],"type":"location"}},{"geometry":null,"type":"Feature","properties":{"geoNameId":4921868,"toponym":"Indiana","hierarchy":{"features":[],"type":"FeatureCollection"},"name":"indiana","locationType":null,"positions":[10],"type":"location"}},{"geometry":null,"type":"Feature","properties":{"geoNameId":6252001,"toponym":"United States","hierarchy":{"features":[],"type":"FeatureCollection"},"name":"indiana","locationType":null,"positions":[10],"type":"location"}},{"geometry":null,"type":"Feature","properties":{"geoNameId":6255149,"toponym":"North America","hierarchy":{"features":[],"type":"FeatureCollection"},"name":"indiana","locationType":null,"positions":[10],"type":"location"}}],"type":"FeatureCollection"},"name":"indiana","locationType":null,"positions":[10],"type":"location"}},{"geometry":{"coordinates":[-87.39671,41.70837],"type":"Point"},"type":"Feature","properties":{"geoNameId":4921858,"alternateNames":["indiana shoals"],"toponym":"Indiana Shoals","featureCode":"BAR","countryCode":"US","featureClass":"T","hierarchy":{"features":[{"geometry":null,"type":"Feature","properties":{"geoNameId":4922493,"toponym":"Lake County","hierarchy":{"features":[],"type":"FeatureCollection"},"name":"indiana","locationType":null,"positions":[10],"type":"location"}},{"geometry":null,"type":"Feature","properties":{"geoNameId":4921868,"toponym":"Indiana","hierarchy":{"features":[],"type":"FeatureCollection"},"name":"indiana","locationType":null,"positions":[10],"type":"location"}},{"geometry":null,"type":"Feature","properties":{"geoNameId":6252001,"toponym":"United States","hierarchy":{"features":[],"type":"FeatureCollection"},"name":"indiana","locationType":null,"positions":[10],"type":"location"}},{"geometry":null,"type":"Feature","properties":{"geoNameId":6255149,"toponym":"North America","hierarchy":{"features":[],"type":"FeatureCollection"},"name":"indiana","locationType":null,"positions":[10],"type":"location"}}],"type":"FeatureCollection"},"name":"indiana","locationType":null,"positions":[10],"type":"location"}},{"geometry":{"coordinates":[-85.83416,41.76005],"type":"Point"},"type":"Feature","properties":{"geoNameId":4997106,"alternateNames":["indiana lake"],"toponym":"Indiana Lake","featureCode":"LK","countryCode":"US","featureClass":"H","hierarchy":{"features":[{"geometry":null,"type":"Feature","properties":{"geoNameId":4988216,"toponym":"Cass County","hierarchy":{"features":[],"type":"FeatureCollection"},"name":"indiana","locationType":null,"positions":[10],"type":"location"}},{"geometry":null,"type":"Feature","properties":{"geoNameId":5001836,"toponym":"Michigan","hierarchy":{"features":[],"type":"FeatureCollection"},"name":"indiana","locationType":null,"positions":[10],"type":"location"}},{"geometry":null,"type":"Feature","properties":{"geoNameId":6252001,"toponym":"United States","hierarchy":{"features":[],"type":"FeatureCollection"},"name":"indiana","locationType":null,"positions":[10],"type":"location"}},{"geometry":null,"type":"Feature","properties":{"geoNameId":6255149,"toponym":"North America","hierarchy":{"features":[],"type":"FeatureCollection"},"name":"indiana","locationType":null,"positions":[10],"type":"location"}}],"type":"FeatureCollection"},"name":"indiana","locationType":null,"positions":[10],"type":"location"}},{"geometry":{"coordinates":[-87.99152,45.83746],"type":"Point"},"type":"Feature","properties":{"geoNameId":4997107,"alternateNames":["indiana mine"],"toponym":"Indiana Mine","featureCode":"MN","countryCode":"US","featureClass":"S","hierarchy":{"features":[{"geometry":null,"type":"Feature","properties":{"geoNameId":4990845,"toponym":"Dickinson County","hierarchy":{"features":[],"type":"FeatureCollection"},"name":"indiana","locationType":null,"positions":[10],"type":"location"}},{"geometry":null,"type":"Feature","properties":{"geoNameId":5001836,"toponym":"Michigan","hierarchy":{"features":[],"type":"FeatureCollection"},"name":"indiana","locationType":null,"positions":[10],"type":"location"}},{"geometry":null,"type":"Feature","properties":{"geoNameId":6252001,"toponym":"United States","hierarchy":{"features":[],"type":"FeatureCollection"},"name":"indiana","locationType":null,"positions":[10],"type":"location"}},{"geometry":null,"type":"Feature","properties":{"geoNameId":6255149,"toponym":"North America","hierarchy":{"features":[],"type":"FeatureCollection"},"name":"indiana","locationType":null,"positions":[10],"type":"location"}}],"type":"FeatureCollection"},"name":"indiana","locationType":null,"positions":[10],"type":"location"}},{"geometry":{"coordinates":[-88.9993,46.7991],"type":"Point"},"type":"Feature","properties":{"geoNameId":4997108,"alternateNames":["indiana mine"],"toponym":"Indiana Mine","featureCode":"MN","countryCode":"US","featureClass":"S","hierarchy":{"features":[{"geometry":null,"type":"Feature","properties":{"geoNameId":5004521,"toponym":"Ontonagon County","hierarchy":{"features":[],"type":"FeatureCollection"},"name":"indiana","locationType":null,"positions":[10],"type":"location"}},{"geometry":null,"type":"Feature","properties":{"geoNameId":5001836,"toponym":"Michigan","hierarchy":{"features":[],"type":"FeatureCollection"},"name":"indiana","locationType":null,"positions":[10],"type":"location"}},{"geometry":null,"type":"Feature","properties":{"geoNameId":6252001,"toponym":"United States","hierarchy":{"features":[],"type":"FeatureCollection"},"name":"indiana","locationType":null,"positions":[10],"type":"location"}},{"geometry":null,"type":"Feature","properties":{"geoNameId":6255149,"toponym":"North America","hierarchy":{"features":[],"type":"FeatureCollection"},"name":"indiana","locationType":null,"positions":[10],"type":"location"}}],"type":"FeatureCollection"},"name":"indiana","locationType":null,"positions":[10],"type":"location"}},{"geometry":{"coordinates":[-84.81393,45.42057],"type":"Point"},"type":"Feature","properties":{"geoNameId":4997109,"alternateNames":["indiana point"],"toponym":"Indiana Point","featureCode":"CAPE","countryCode":"US","featureClass":"T","hierarchy":{"features":[{"geometry":null,"type":"Feature","properties":{"geoNameId":4992137,"toponym":"Emmet County","hierarchy":{"features":[],"type":"FeatureCollection"},"name":"indiana","locationType":null,"positions":[10],"type":"location"}},{"geometry":null,"type":"Feature","properties":{"geoNameId":5001836,"toponym":"Michigan","hierarchy":{"features":[],"type":"FeatureCollection"},"name":"indiana","locationType":null,"positions":[10],"type":"location"}},{"geometry":null,"type":"Feature","properties":{"geoNameId":6252001,"toponym":"United States","hierarchy":{"features":[],"type":"FeatureCollection"},"name":"indiana","locationType":null,"positions":[10],"type":"location"}},{"geometry":null,"type":"Feature","properties":{"geoNameId":6255149,"toponym":"North America","hierarchy":{"features":[],"type":"FeatureCollection"},"name":"indiana","locationType":null,"positions":[10],"type":"location"}}],"type":"FeatureCollection"},"name":"indiana","locationType":null,"positions":[10],"type":"location"}},{"geometry":{"coordinates":[-83.57993,41.65061],"type":"Point"},"type":"Feature","properties":{"geoNameId":5158498,"alternateNames":["indiana school"],"toponym":"Indiana School","featureCode":"SCH","countryCode":"US","featureClass":"S","hierarchy":{"features":[{"geometry":null,"type":"Feature","properties":{"geoNameId":5161413,"toponym":"Lucas County","hierarchy":{"features":[],"type":"FeatureCollection"},"name":"indiana","locationType":null,"positions":[10],"type":"location"}},{"geometry":null,"type":"Feature","properties":{"geoNameId":5165418,"toponym":"Ohio","hierarchy":{"features":[],"type":"FeatureCollection"},"name":"indiana","locationType":null,"positions":[10],"type":"location"}},{"geometry":null,"type":"Feature","properties":{"geoNameId":6252001,"toponym":"United States","hierarchy":{"features":[],"type":"FeatureCollection"},"name":"indiana","locationType":null,"positions":[10],"type":"location"}},{"geometry":null,"type":"Feature","properties":{"geoNameId":6255149,"toponym":"North America","hierarchy":{"features":[],"type":"FeatureCollection"},"name":"indiana","locationType":null,"positions":[10],"type":"location"}}],"type":"FeatureCollection"},"name":"indiana","locationType":null,"positions":[10],"type":"location"}},{"geometry":{"coordinates":[-79.18392,40.60757],"type":"Point"},"type":"Feature","properties":{"geoNameId":5194874,"alternateNames":["indiana mall"],"toponym":"Indiana Mall","featureCode":"MALL","countryCode":"US","featureClass":"S","hierarchy":{"features":[{"geometry":null,"type":"Feature","properties":{"geoNameId":5194872,"toponym":"Indiana County","hierarchy":{"features":[],"type":"FeatureCollection"},"name":"indiana","locationType":null,"positions":[10],"type":"location"}},{"geometry":null,"type":"Feature","properties":{"geoNameId":6254927,"toponym":"Pennsylvania","hierarchy":{"features":[],"type":"FeatureCollection"},"name":"indiana","locationType":null,"positions":[10],"type":"location"}},{"geometry":null,"type":"Feature","properties":{"geoNameId":6252001,"toponym":"United States","hierarchy":{"features":[],"type":"FeatureCollection"},"name":"indiana","locationType":null,"positions":[10],"type":"location"}},{"geometry":null,"type":"Feature","properties":{"geoNameId":6255149,"toponym":"North America","hierarchy":{"features":[],"type":"FeatureCollection"},"name":"indiana","locationType":null,"positions":[10],"type":"location"}}],"type":"FeatureCollection"},"name":"indiana","locationType":null,"positions":[10],"type":"location"}},{"geometry":{"coordinates":[-121.24746,39.41072],"type":"Point"},"type":"Feature","properties":{"geoNameId":5359438,"alternateNames":["indiana creek"],"toponym":"Indiana Creek","featureCode":"STM","countryCode":"US","featureClass":"H","hierarchy":{"features":[{"geometry":null,"type":"Feature","properties":{"geoNameId":5411026,"toponym":"Yuba County","hierarchy":{"features":[],"type":"FeatureCollection"},"name":"indiana","locationType":null,"positions":[10],"type":"location"}},{"geometry":null,"type":"Feature","properties":{"geoNameId":5332921,"toponym":"California","hierarchy":{"features":[],"type":"FeatureCollection"},"name":"indiana","locationType":null,"positions":[10],"type":"location"}},{"geometry":null,"type":"Feature","properties":{"geoNameId":6252001,"toponym":"United States","hierarchy":{"features":[],"type":"FeatureCollection"},"name":"indiana","locationType":null,"positions":[10],"type":"location"}},{"geometry":null,"type":"Feature","properties":{"geoNameId":6255149,"toponym":"North America","hierarchy":{"features":[],"type":"FeatureCollection"},"name":"indiana","locationType":null,"positions":[10],"type":"location"}}],"type":"FeatureCollection"},"name":"indiana","locationType":null,"positions":[10],"type":"location"}},{"geometry":{"coordinates":[-120.84105,39.14879],"type":"Point"},"type":"Feature","properties":{"geoNameId":5359440,"alternateNames":["indiana ravine"],"toponym":"Indiana Ravine","featureCode":"VAL","countryCode":"US","featureClass":"T","hierarchy":{"features":[{"geometry":null,"type":"Feature","properties":{"geoNameId":5383537,"toponym":"Placer County","hierarchy":{"features":[],"type":"FeatureCollection"},"name":"indiana","locationType":null,"positions":[10],"type":"location"}},{"geometry":null,"type":"Feature","properties":{"geoNameId":5332921,"toponym":"California","hierarchy":{"features":[],"type":"FeatureCollection"},"name":"indiana","locationType":null,"positions":[10],"type":"location"}},{"geometry":null,"type":"Feature","properties":{"geoNameId":6252001,"toponym":"United States","hierarchy":{"features":[],"type":"FeatureCollection"},"name":"indiana","locationType":null,"positions":[10],"type":"location"}},{"geometry":null,"type":"Feature","properties":{"geoNameId":6255149,"toponym":"North America","hierarchy":{"features":[],"type":"FeatureCollection"},"name":"indiana","locationType":null,"positions":[10],"type":"location"}}],"type":"FeatureCollection"},"name":"indiana","locationType":null,"positions":[10],"type":"location"}},{"geometry":{"coordinates":[-121.22774,39.40017],"type":"Point"},"type":"Feature","properties":{"geoNameId":5359441,"alternateNames":["indiana ranch"],"toponym":"Indiana Ranch","featureCode":null,"countryCode":"US","featureClass":"S","hierarchy":{"features":[{"geometry":null,"type":"Feature","properties":{"geoNameId":5411026,"toponym":"Yuba County","hierarchy":{"features":[],"type":"FeatureCollection"},"name":"indiana","locationType":null,"positions":[10],"type":"location"}},{"geometry":null,"type":"Feature","properties":{"geoNameId":5332921,"toponym":"California","hierarchy":{"features":[],"type":"FeatureCollection"},"name":"indiana","locationType":null,"positions":[10],"type":"location"}},{"geometry":null,"type":"Feature","properties":{"geoNameId":6252001,"toponym":"United States","hierarchy":{"features":[],"type":"FeatureCollection"},"name":"indiana","locationType":null,"positions":[10],"type":"location"}},{"geometry":null,"type":"Feature","properties":{"geoNameId":6255149,"toponym":"North America","hierarchy":{"features":[],"type":"FeatureCollection"},"name":"indiana","locationType":null,"positions":[10],"type":"location"}}],"type":"FeatureCollection"},"name":"indiana","locationType":null,"positions":[10],"type":"location"}},{"geometry":{"coordinates":[-118.93181,37.80465],"type":"Point"},"type":"Feature","properties":{"geoNameId":5359450,"alternateNames":["indiana summit"],"toponym":"Indiana Summit","featureCode":"MT","countryCode":"US","featureClass":"T","hierarchy":{"features":[{"geometry":null,"type":"Feature","properties":{"geoNameId":5374091,"toponym":"Mono County","hierarchy":{"features":[],"type":"FeatureCollection"},"name":"indiana","locationType":null,"positions":[10],"type":"location"}},{"geometry":null,"type":"Feature","properties":{"geoNameId":5332921,"toponym":"California","hierarchy":{"features":[],"type":"FeatureCollection"},"name":"indiana","locationType":null,"positions":[10],"type":"location"}},{"geometry":null,"type":"Feature","properties":{"geoNameId":6252001,"toponym":"United States","hierarchy":{"features":[],"type":"FeatureCollection"},"name":"indiana","locationType":null,"positions":[10],"type":"location"}},{"geometry":null,"type":"Feature","properties":{"geoNameId":6255149,"toponym":"North America","hierarchy":{"features":[],"type":"FeatureCollection"},"name":"indiana","locationType":null,"positions":[10],"type":"location"}}],"type":"FeatureCollection"},"name":"indiana","locationType":null,"positions":[10],"type":"location"}},{"geometry":{"coordinates":[-118.38578,45.02374],"type":"Point"},"type":"Feature","properties":{"geoNameId":5732976,"alternateNames":["indiana creek"],"toponym":"Indiana Creek","featureCode":"STM","countryCode":"US","featureClass":"H","hierarchy":{"features":[{"geometry":null,"type":"Feature","properties":{"geoNameId":5758120,"toponym":"Union County","hierarchy":{"features":[],"type":"FeatureCollection"},"name":"indiana","locationType":null,"positions":[10],"type":"location"}},{"geometry":null,"type":"Feature","properties":{"geoNameId":5744337,"toponym":"Oregon","hierarchy":{"features":[],"type":"FeatureCollection"},"name":"indiana","locationType":null,"positions":[10],"type":"location"}},{"geometry":null,"type":"Feature","properties":{"geoNameId":6252001,"toponym":"United States","hierarchy":{"features":[],"type":"FeatureCollection"},"name":"indiana","locationType":null,"positions":[10],"type":"location"}},{"geometry":null,"type":"Feature","properties":{"geoNameId":6255149,"toponym":"North America","hierarchy":{"features":[],"type":"FeatureCollection"},"name":"indiana","locationType":null,"positions":[10],"type":"location"}}],"type":"FeatureCollection"},"name":"indiana","locationType":null,"positions":[10],"type":"location"}},{"geometry":{"coordinates":[-88.37282,37.45811],"type":"Point"},"type":"Feature","properties":{"geoNameId":4241428,"alternateNames":["indiana mines"],"toponym":"Indiana Mines","featureCode":"MN","countryCode":"US","featureClass":"S","hierarchy":{"features":[{"geometry":null,"type":"Feature","properties":{"geoNameId":4240212,"toponym":"Hardin County","hierarchy":{"features":[],"type":"FeatureCollection"},"name":"indiana","locationType":null,"positions":[10],"type":"location"}},{"geometry":null,"type":"Feature","properties":{"geoNameId":4896861,"toponym":"Illinois","hierarchy":{"features":[],"type":"FeatureCollection"},"name":"indiana","locationType":null,"positions":[10],"type":"location"}},{"geometry":null,"type":"Feature","properties":{"geoNameId":6252001,"toponym":"United States","hierarchy":{"features":[],"type":"FeatureCollection"},"name":"indiana","locationType":null,"positions":[10],"type":"location"}},{"geometry":null,"type":"Feature","properties":{"geoNameId":6255149,"toponym":"North America","hierarchy":{"features":[],"type":"FeatureCollection"},"name":"indiana","locationType":null,"positions":[10],"type":"location"}}],"type":"FeatureCollection"},"name":"indiana","locationType":null,"positions":[10],"type":"location"}},{"geometry":{"coordinates":[-97.54226,35.39062],"type":"Point"},"type":"Feature","properties":{"geoNameId":4539334,"alternateNames":["indiana place"],"toponym":"Indiana Place","featureCode":null,"countryCode":"US","featureClass":"S","hierarchy":{"features":[{"geometry":null,"type":"Feature","properties":{"geoNameId":4544356,"toponym":"Oklahoma County","hierarchy":{"features":[],"type":"FeatureCollection"},"name":"indiana","locationType":null,"positions":[10],"type":"location"}},{"geometry":null,"type":"Feature","properties":{"geoNameId":4544379,"toponym":"Oklahoma","hierarchy":{"features":[],"type":"FeatureCollection"},"name":"indiana","locationType":null,"positions":[10],"type":"location"}},{"geometry":null,"type":"Feature","properties":{"geoNameId":6252001,"toponym":"United States","hierarchy":{"features":[],"type":"FeatureCollection"},"name":"indiana","locationType":null,"positions":[10],"type":"location"}},{"geometry":null,"type":"Feature","properties":{"geoNameId":6255149,"toponym":"North America","hierarchy":{"features":[],"type":"FeatureCollection"},"name":"indiana","locationType":null,"positions":[10],"type":"location"}}],"type":"FeatureCollection"},"name":"indiana","locationType":null,"positions":[10],"type":"location"}},{"geometry":{"coordinates":[-87.44585,38.64199],"type":"Point"},"type":"Feature","properties":{"geoNameId":4259395,"alternateNames":["indiana church"],"toponym":"Indiana Church","featureCode":"CH","countryCode":"US","featureClass":"S","hierarchy":{"features":[{"geometry":null,"type":"Feature","properties":{"geoNameId":4259986,"toponym":"Knox County","hierarchy":{"features":[],"type":"FeatureCollection"},"name":"indiana","locationType":null,"positions":[10],"type":"location"}},{"geometry":null,"type":"Feature","properties":{"geoNameId":4921868,"toponym":"Indiana","hierarchy":{"features":[],"type":"FeatureCollection"},"name":"indiana","locationType":null,"positions":[10],"type":"location"}},{"geometry":null,"type":"Feature","properties":{"geoNameId":6252001,"toponym":"United States","hierarchy":{"features":[],"type":"FeatureCollection"},"name":"indiana","locationType":null,"positions":[10],"type":"location"}},{"geometry":null,"type":"Feature","properties":{"geoNameId":6255149,"toponym":"North America","hierarchy":{"features":[],"type":"FeatureCollection"},"name":"indiana","locationType":null,"positions":[10],"type":"location"}}],"type":"FeatureCollection"},"name":"indiana","locationType":null,"positions":[10],"type":"location"}},{"geometry":{"coordinates":[121.12357,14.66908],"type":"Point"},"type":"Feature","properties":{"geoNameId":8563854,"alternateNames":["indiana street"],"toponym":"Indiana Street","featureCode":"ST","countryCode":"PH","featureClass":"R","hierarchy":{"features":[{"geometry":null,"type":"Feature","properties":{"geoNameId":1691591,"toponym":"Province of Rizal","hierarchy":{"features":[],"type":"FeatureCollection"},"name":"indiana","locationType":null,"positions":[10],"type":"location"}},{"geometry":null,"type":"Feature","properties":{"geoNameId":7521303,"toponym":"Calabarzon","hierarchy":{"features":[],"type":"FeatureCollection"},"name":"indiana","locationType":null,"positions":[10],"type":"location"}},{"geometry":null,"type":"Feature","properties":{"geoNameId":1694008,"toponym":"Philippines","hierarchy":{"features":[],"type":"FeatureCollection"},"name":"indiana","locationType":null,"positions":[10],"type":"location"}},{"geometry":null,"type":"Feature","properties":{"geoNameId":6255147,"toponym":"Asia","hierarchy":{"features":[],"type":"FeatureCollection"},"name":"indiana","locationType":null,"positions":[10],"type":"location"}}],"type":"FeatureCollection"},"name":"indiana","locationType":null,"positions":[10],"type":"location"}},{"geometry":{"coordinates":[121.08333,16.35],"type":"Point"},"type":"Feature","properties":{"geoNameId":1710760,"alternateNames":["indiana river"],"toponym":"Indiana River","featureCode":"STM","countryCode":"PH","featureClass":"H","hierarchy":{"features":[{"geometry":null,"type":"Feature","properties":{"geoNameId":1697456,"toponym":"Province of Nueva Vizcaya","hierarchy":{"features":[],"type":"FeatureCollection"},"name":"indiana","locationType":null,"positions":[10],"type":"location"}},{"geometry":null,"type":"Feature","properties":{"geoNameId":7521297,"toponym":"Cagayan Valley","hierarchy":{"features":[],"type":"FeatureCollection"},"name":"indiana","locationType":null,"positions":[10],"type":"location"}},{"geometry":null,"type":"Feature","properties":{"geoNameId":1694008,"toponym":"Philippines","hierarchy":{"features":[],"type":"FeatureCollection"},"name":"indiana","locationType":null,"positions":[10],"type":"location"}},{"geometry":null,"type":"Feature","properties":{"geoNameId":6255147,"toponym":"Asia","hierarchy":{"features":[],"type":"FeatureCollection"},"name":"indiana","locationType":null,"positions":[10],"type":"location"}}],"type":"FeatureCollection"},"name":"indiana","locationType":null,"positions":[10],"type":"location"}},{"geometry":{"coordinates":[121.08333,16.33333],"type":"Point"},"type":"Feature","properties":{"geoNameId":1710761,"alternateNames":["indiana creek"],"toponym":"Indiana Creek","featureCode":"STM","countryCode":"PH","featureClass":"H","hierarchy":{"features":[{"geometry":null,"type":"Feature","properties":{"geoNameId":1697456,"toponym":"Province of Nueva Vizcaya","hierarchy":{"features":[],"type":"FeatureCollection"},"name":"indiana","locationType":null,"positions":[10],"type":"location"}},{"geometry":null,"type":"Feature","properties":{"geoNameId":7521297,"toponym":"Cagayan Valley","hierarchy":{"features":[],"type":"FeatureCollection"},"name":"indiana","locationType":null,"positions":[10],"type":"location"}},{"geometry":null,"type":"Feature","properties":{"geoNameId":1694008,"toponym":"Philippines","hierarchy":{"features":[],"type":"FeatureCollection"},"name":"indiana","locationType":null,"positions":[10],"type":"location"}},{"geometry":null,"type":"Feature","properties":{"geoNameId":6255147,"toponym":"Asia","hierarchy":{"features":[],"type":"FeatureCollection"},"name":"indiana","locationType":null,"positions":[10],"type":"location"}}],"type":"FeatureCollection"},"name":"indiana","locationType":null,"positions":[10],"type":"location"}},{"geometry":{"coordinates":[-106.02918,39.45332],"type":"Point"},"type":"Feature","properties":{"geoNameId":5426081,"alternateNames":["indiana creek"],"toponym":"Indiana Creek","featureCode":"STM","countryCode":"US","featureClass":"H","hierarchy":{"features":[{"geometry":null,"type":"Feature","properties":{"geoNameId":5440680,"toponym":"Summit County","hierarchy":{"features":[],"type":"FeatureCollection"},"name":"indiana","locationType":null,"positions":[10],"type":"location"}},{"geometry":null,"type":"Feature","properties":{"geoNameId":5417618,"toponym":"Colorado","hierarchy":{"features":[],"type":"FeatureCollection"},"name":"indiana","locationType":null,"positions":[10],"type":"location"}},{"geometry":null,"type":"Feature","properties":{"geoNameId":6252001,"toponym":"United States","hierarchy":{"features":[],"type":"FeatureCollection"},"name":"indiana","locationType":null,"positions":[10],"type":"location"}},{"geometry":null,"type":"Feature","properties":{"geoNameId":6255149,"toponym":"North America","hierarchy":{"features":[],"type":"FeatureCollection"},"name":"indiana","locationType":null,"positions":[10],"type":"location"}}],"type":"FeatureCollection"},"name":"indiana","locationType":null,"positions":[10],"type":"location"}},{"geometry":{"coordinates":[-106.22919,39.30971],"type":"Point"},"type":"Feature","properties":{"geoNameId":5426083,"alternateNames":["indiana gulch"],"toponym":"Indiana Gulch","featureCode":"VAL","countryCode":"US","featureClass":"T","hierarchy":{"features":[{"geometry":null,"type":"Feature","properties":{"geoNameId":5427799,"toponym":"Lake County","hierarchy":{"features":[],"type":"FeatureCollection"},"name":"indiana","locationType":null,"positions":[10],"type":"location"}},{"geometry":null,"type":"Feature","properties":{"geoNameId":5417618,"toponym":"Colorado","hierarchy":{"features":[],"type":"FeatureCollection"},"name":"indiana","locationType":null,"positions":[10],"type":"location"}},{"geometry":null,"type":"Feature","properties":{"geoNameId":6252001,"toponym":"United States","hierarchy":{"features":[],"type":"FeatureCollection"},"name":"indiana","locationType":null,"positions":[10],"type":"location"}},{"geometry":null,"type":"Feature","properties":{"geoNameId":6255149,"toponym":"North America","hierarchy":{"features":[],"type":"FeatureCollection"},"name":"indiana","locationType":null,"positions":[10],"type":"location"}}],"type":"FeatureCollection"},"name":"indiana","locationType":null,"positions":[10],"type":"location"}},{"geometry":{"coordinates":[-105.5225,39.79138],"type":"Point"},"type":"Feature","properties":{"geoNameId":5426084,"alternateNames":["indiana mine"],"toponym":"Indiana Mine","featureCode":"MN","countryCode":"US","featureClass":"S","hierarchy":{"features":[{"geometry":null,"type":"Feature","properties":{"geoNameId":5422987,"toponym":"Gilpin County","hierarchy":{"features":[],"type":"FeatureCollection"},"name":"indiana","locationType":null,"positions":[10],"type":"location"}},{"geometry":null,"type":"Feature","properties":{"geoNameId":5417618,"toponym":"Colorado","hierarchy":{"features":[],"type":"FeatureCollection"},"name":"indiana","locationType":null,"positions":[10],"type":"location"}},{"geometry":null,"type":"Feature","properties":{"geoNameId":6252001,"toponym":"United States","hierarchy":{"features":[],"type":"FeatureCollection"},"name":"indiana","locationType":null,"positions":[10],"type":"location"}},{"geometry":null,"type":"Feature","properties":{"geoNameId":6255149,"toponym":"North America","hierarchy":{"features":[],"type":"FeatureCollection"},"name":"indiana","locationType":null,"positions":[10],"type":"location"}}],"type":"FeatureCollection"},"name":"indiana","locationType":null,"positions":[10],"type":"location"}},{"geometry":{"coordinates":[-100.71403,48.35528],"type":"Point"},"type":"Feature","properties":{"geoNameId":5689772,"alternateNames":["indiana school"],"toponym":"Indiana School","featureCode":"SCH","countryCode":"US","featureClass":"S","hierarchy":{"features":[{"geometry":null,"type":"Feature","properties":{"geoNameId":5690436,"toponym":"McHenry County","hierarchy":{"features":[],"type":"FeatureCollection"},"name":"indiana","locationType":null,"positions":[10],"type":"location"}},{"geometry":null,"type":"Feature","properties":{"geoNameId":5690763,"toponym":"North Dakota","hierarchy":{"features":[],"type":"FeatureCollection"},"name":"indiana","locationType":null,"positions":[10],"type":"location"}},{"geometry":null,"type":"Feature","properties":{"geoNameId":6252001,"toponym":"United States","hierarchy":{"features":[],"type":"FeatureCollection"},"name":"indiana","locationType":null,"positions":[10],"type":"location"}},{"geometry":null,"type":"Feature","properties":{"geoNameId":6255149,"toponym":"North America","hierarchy":{"features":[],"type":"FeatureCollection"},"name":"indiana","locationType":null,"positions":[10],"type":"location"}}],"type":"FeatureCollection"},"name":"indiana","locationType":null,"positions":[10],"type":"location"}},{"geometry":{"coordinates":[-105.23001,36.62059],"type":"Point"},"type":"Feature","properties":{"geoNameId":5472718,"alternateNames":["indiana mine"],"toponym":"Indiana Mine","featureCode":"MN","countryCode":"US","featureClass":"S","hierarchy":{"features":[{"geometry":null,"type":"Feature","properties":{"geoNameId":5462567,"toponym":"Colfax County","hierarchy":{"features":[],"type":"FeatureCollection"},"name":"indiana","locationType":null,"positions":[10],"type":"location"}},{"geometry":null,"type":"Feature","properties":{"geoNameId":5481136,"toponym":"New Mexico","hierarchy":{"features":[],"type":"FeatureCollection"},"name":"indiana","locationType":null,"positions":[10],"type":"location"}},{"geometry":null,"type":"Feature","properties":{"geoNameId":6252001,"toponym":"United States","hierarchy":{"features":[],"type":"FeatureCollection"},"name":"indiana","locationType":null,"positions":[10],"type":"location"}},{"geometry":null,"type":"Feature","properties":{"geoNameId":6255149,"toponym":"North America","hierarchy":{"features":[],"type":"FeatureCollection"},"name":"indiana","locationType":null,"positions":[10],"type":"location"}}],"type":"FeatureCollection"},"name":"indiana","locationType":null,"positions":[10],"type":"location"}},{"geometry":{"coordinates":[-87.44115,41.67004],"type":"Point"},"type":"Feature","properties":{"geoNameId":5280992,"alternateNames":["indiana harbor"],"toponym":"Indiana Harbor","featureCode":"HBR","countryCode":"US","featureClass":"H","hierarchy":{"features":[{"geometry":null,"type":"Feature","properties":{"geoNameId":4922493,"toponym":"Lake County","hierarchy":{"features":[],"type":"FeatureCollection"},"name":"indiana","locationType":null,"positions":[10],"type":"location"}},{"geometry":null,"type":"Feature","properties":{"geoNameId":4921868,"toponym":"Indiana","hierarchy":{"features":[],"type":"FeatureCollection"},"name":"indiana","locationType":null,"positions":[10],"type":"location"}},{"geometry":null,"type":"Feature","properties":{"geoNameId":6252001,"toponym":"United States","hierarchy":{"features":[],"type":"FeatureCollection"},"name":"indiana","locationType":null,"positions":[10],"type":"location"}},{"geometry":null,"type":"Feature","properties":{"geoNameId":6255149,"toponym":"North America","hierarchy":{"features":[],"type":"FeatureCollection"},"name":"indiana","locationType":null,"positions":[10],"type":"location"}}],"type":"FeatureCollection"},"name":"indiana","locationType":null,"positions":[10],"type":"location"}},{"geometry":{"coordinates":[-87.68866,41.50226],"type":"Point"},"type":"Feature","properties":{"geoNameId":4897090,"alternateNames":["indiana park"],"toponym":"Indiana Park","featureCode":"PRK","countryCode":"US","featureClass":"L","hierarchy":{"features":[{"geometry":null,"type":"Feature","properties":{"geoNameId":4888671,"toponym":"Cook County","hierarchy":{"features":[],"type":"FeatureCollection"},"name":"indiana","locationType":null,"positions":[10],"type":"location"}},{"geometry":null,"type":"Feature","properties":{"geoNameId":4896861,"toponym":"Illinois","hierarchy":{"features":[],"type":"FeatureCollection"},"name":"indiana","locationType":null,"positions":[10],"type":"location"}},{"geometry":null,"type":"Feature","properties":{"geoNameId":6252001,"toponym":"United States","hierarchy":{"features":[],"type":"FeatureCollection"},"name":"indiana","locationType":null,"positions":[10],"type":"location"}},{"geometry":null,"type":"Feature","properties":{"geoNameId":6255149,"toponym":"North America","hierarchy":{"features":[],"type":"FeatureCollection"},"name":"indiana","locationType":null,"positions":[10],"type":"location"}}],"type":"FeatureCollection"},"name":"indiana","locationType":null,"positions":[10],"type":"location"}},{"geometry":{"coordinates":[-90.43208,41.60475],"type":"Point"},"type":"Feature","properties":{"geoNameId":4861714,"alternateNames":["indiana school"],"toponym":"Indiana School","featureCode":"SCH","countryCode":"US","featureClass":"S","hierarchy":{"features":[{"geometry":null,"type":"Feature","properties":{"geoNameId":4875785,"toponym":"Scott County","hierarchy":{"features":[],"type":"FeatureCollection"},"name":"indiana","locationType":null,"positions":[10],"type":"location"}},{"geometry":null,"type":"Feature","properties":{"geoNameId":4862182,"toponym":"Iowa","hierarchy":{"features":[],"type":"FeatureCollection"},"name":"indiana","locationType":null,"positions":[10],"type":"location"}},{"geometry":null,"type":"Feature","properties":{"geoNameId":6252001,"toponym":"United States","hierarchy":{"features":[],"type":"FeatureCollection"},"name":"indiana","locationType":null,"positions":[10],"type":"location"}},{"geometry":null,"type":"Feature","properties":{"geoNameId":6255149,"toponym":"North America","hierarchy":{"features":[],"type":"FeatureCollection"},"name":"indiana","locationType":null,"positions":[10],"type":"location"}}],"type":"FeatureCollection"},"name":"indiana","locationType":null,"positions":[10],"type":"location"}},{"geometry":{"coordinates":[-98.74808,26.90977],"type":"Point"},"type":"Feature","properties":{"geoNameId":4700009,"alternateNames":["indiana windmill"],"toponym":"Indiana Windmill","featureCode":null,"countryCode":"US","featureClass":"S","hierarchy":{"features":[{"geometry":null,"type":"Feature","properties":{"geoNameId":4701059,"toponym":"Jim Hogg County","hierarchy":{"features":[],"type":"FeatureCollection"},"name":"indiana","locationType":null,"positions":[10],"type":"location"}},{"geometry":null,"type":"Feature","properties":{"geoNameId":4736286,"toponym":"Texas","hierarchy":{"features":[],"type":"FeatureCollection"},"name":"indiana","locationType":null,"positions":[10],"type":"location"}},{"geometry":null,"type":"Feature","properties":{"geoNameId":6252001,"toponym":"United States","hierarchy":{"features":[],"type":"FeatureCollection"},"name":"indiana","locationType":null,"positions":[10],"type":"location"}},{"geometry":null,"type":"Feature","properties":{"geoNameId":6255149,"toponym":"North America","hierarchy":{"features":[],"type":"FeatureCollection"},"name":"indiana","locationType":null,"positions":[10],"type":"location"}}],"type":"FeatureCollection"},"name":"indiana","locationType":null,"positions":[10],"type":"location"}},{"geometry":{"coordinates":[-120.714,48.7693],"type":"Point"},"type":"Feature","properties":{"geoNameId":5798316,"alternateNames":["indiana basin"],"toponym":"Indiana Basin","featureCode":"DPR","countryCode":"US","featureClass":"T","hierarchy":{"features":[{"geometry":null,"type":"Feature","properties":{"geoNameId":5815675,"toponym":"Whatcom County","hierarchy":{"features":[],"type":"FeatureCollection"},"name":"indiana","locationType":null,"positions":[10],"type":"location"}},{"geometry":null,"type":"Feature","properties":{"geoNameId":5815135,"toponym":"Washington","hierarchy":{"features":[],"type":"FeatureCollection"},"name":"indiana","locationType":null,"positions":[10],"type":"location"}},{"geometry":null,"type":"Feature","properties":{"geoNameId":6252001,"toponym":"United States","hierarchy":{"features":[],"type":"FeatureCollection"},"name":"indiana","locationType":null,"positions":[10],"type":"location"}},{"geometry":null,"type":"Feature","properties":{"geoNameId":6255149,"toponym":"North America","hierarchy":{"features":[],"type":"FeatureCollection"},"name":"indiana","locationType":null,"positions":[10],"type":"location"}}],"type":"FeatureCollection"},"name":"indiana","locationType":null,"positions":[10],"type":"location"}},{"geometry":{"coordinates":[-73.17139,48.41167],"type":"Point"},"type":"Feature","properties":{"geoNameId":6025023,"alternateNames":["lac indiana"],"toponym":"Lac Indiana","featureCode":"LK","countryCode":"CA","featureClass":"H","hierarchy":{"features":[{"geometry":null,"type":"Feature","properties":{"geoNameId":6137271,"toponym":"Saguenay/Lac-Saint-Jean","hierarchy":{"features":[],"type":"FeatureCollection"},"name":"indiana","locationType":null,"positions":[10],"type":"location"}},{"geometry":null,"type":"Feature","properties":{"geoNameId":6115047,"toponym":"Québec","hierarchy":{"features":[],"type":"FeatureCollection"},"name":"indiana","locationType":null,"positions":[10],"type":"location"}},{"geometry":null,"type":"Feature","properties":{"geoNameId":6251999,"toponym":"Canada","hierarchy":{"features":[],"type":"FeatureCollection"},"name":"indiana","locationType":null,"positions":[10],"type":"location"}},{"geometry":null,"type":"Feature","properties":{"geoNameId":6255149,"toponym":"North America","hierarchy":{"features":[],"type":"FeatureCollection"},"name":"indiana","locationType":null,"positions":[10],"type":"location"}}],"type":"FeatureCollection"},"name":"indiana","locationType":null,"positions":[10],"type":"location"}},{"geometry":{"coordinates":[-79.15809,40.61757],"type":"Point"},"type":"Feature","properties":{"geoNameId":5194875,"alternateNames":["indiana normal school","indiana state normal school","universite dindiana en pennsylvanie","indiana state college","indiana state teachers college","université dindiana en pennsylvanie","indiana university of pennsylvania","penshirubenia zhou liindiana da xue","universidad de indiana de pensilvania","ペンシルベニア州立インディアナ大学"],"toponym":"Indiana University of Pennsylvania","featureCode":"SCH","countryCode":"US","featureClass":"S","hierarchy":{"features":[{"geometry":null,"type":"Feature","properties":{"geoNameId":5194872,"toponym":"Indiana County","hierarchy":{"features":[],"type":"FeatureCollection"},"name":"indiana","locationType":null,"positions":[10],"type":"location"}},{"geometry":null,"type":"Feature","properties":{"geoNameId":6254927,"toponym":"Pennsylvania","hierarchy":{"features":[],"type":"FeatureCollection"},"name":"indiana","locationType":null,"positions":[10],"type":"location"}},{"geometry":null,"type":"Feature","properties":{"geoNameId":6252001,"toponym":"United States","hierarchy":{"features":[],"type":"FeatureCollection"},"name":"indiana","locationType":null,"positions":[10],"type":"location"}},{"geometry":null,"type":"Feature","properties":{"geoNameId":6255149,"toponym":"North America","hierarchy":{"features":[],"type":"FeatureCollection"},"name":"indiana","locationType":null,"positions":[10],"type":"location"}}],"type":"FeatureCollection"},"name":"indiana","locationType":null,"positions":[10],"type":"location"}},{"geometry":{"coordinates":[-87.40863,39.46865],"type":"Point"},"type":"Feature","properties":{"geoNameId":4259404,"alternateNames":["indiana state normal school","indiana state college","indiana state teachers college","indiana state university"],"toponym":"Indiana State University","featureCode":"SCH","countryCode":"US","featureClass":"S","hierarchy":{"features":[{"geometry":null,"type":"Feature","properties":{"geoNameId":4266295,"toponym":"Vigo County","hierarchy":{"features":[],"type":"FeatureCollection"},"name":"indiana","locationType":null,"positions":[10],"type":"location"}},{"geometry":null,"type":"Feature","properties":{"geoNameId":4921868,"toponym":"Indiana","hierarchy":{"features":[],"type":"FeatureCollection"},"name":"indiana","locationType":null,"positions":[10],"type":"location"}},{"geometry":null,"type":"Feature","properties":{"geoNameId":6252001,"toponym":"United States","hierarchy":{"features":[],"type":"FeatureCollection"},"name":"indiana","locationType":null,"positions":[10],"type":"location"}},{"geometry":null,"type":"Feature","properties":{"geoNameId":6255149,"toponym":"North America","hierarchy":{"features":[],"type":"FeatureCollection"},"name":"indiana","locationType":null,"positions":[10],"type":"location"}}],"type":"FeatureCollection"},"name":"indiana","locationType":null,"positions":[10],"type":"location"}},{"geometry":{"coordinates":[-86.22192,41.66532],"type":"Point"},"type":"Feature","properties":{"geoNameId":4921862,"alternateNames":["indiana university south bend campus","indiana university - south bend","indiana university south bend"],"toponym":"Indiana University - South Bend","featureCode":"SCH","countryCode":"US","featureClass":"S","hierarchy":{"features":[{"geometry":null,"type":"Feature","properties":{"geoNameId":4925848,"toponym":"Saint Joseph County","hierarchy":{"features":[],"type":"FeatureCollection"},"name":"indiana","locationType":null,"positions":[10],"type":"location"}},{"geometry":null,"type":"Feature","properties":{"geoNameId":4921868,"toponym":"Indiana","hierarchy":{"features":[],"type":"FeatureCollection"},"name":"indiana","locationType":null,"positions":[10],"type":"location"}},{"geometry":null,"type":"Feature","properties":{"geoNameId":6252001,"toponym":"United States","hierarchy":{"features":[],"type":"FeatureCollection"},"name":"indiana","locationType":null,"positions":[10],"type":"location"}},{"geometry":null,"type":"Feature","properties":{"geoNameId":6255149,"toponym":"North America","hierarchy":{"features":[],"type":"FeatureCollection"},"name":"indiana","locationType":null,"positions":[10],"type":"location"}}],"type":"FeatureCollection"},"name":"indiana","locationType":null,"positions":[10],"type":"location"}},{"geometry":{"coordinates":[-86.04638,39.47922],"type":"Point"},"type":"Feature","properties":{"geoNameId":4257699,"alternateNames":["indiana baptist manual labor institute","franklin college of indiana","franklin college"],"toponym":"Franklin College of Indiana","featureCode":"SCH","countryCode":"US","featureClass":"S","hierarchy":{"features":[{"geometry":null,"type":"Feature","properties":{"geoNameId":4259727,"toponym":"Johnson County","hierarchy":{"features":[],"type":"FeatureCollection"},"name":"indiana","locationType":null,"positions":[10],"type":"location"}},{"geometry":null,"type":"Feature","properties":{"geoNameId":4921868,"toponym":"Indiana","hierarchy":{"features":[],"type":"FeatureCollection"},"name":"indiana","locationType":null,"positions":[10],"type":"location"}},{"geometry":null,"type":"Feature","properties":{"geoNameId":6252001,"toponym":"United States","hierarchy":{"features":[],"type":"FeatureCollection"},"name":"indiana","locationType":null,"positions":[10],"type":"location"}},{"geometry":null,"type":"Feature","properties":{"geoNameId":6255149,"toponym":"North America","hierarchy":{"features":[],"type":"FeatureCollection"},"name":"indiana","locationType":null,"positions":[10],"type":"location"}}],"type":"FeatureCollection"},"name":"indiana","locationType":null,"positions":[10],"type":"location"}},{"geometry":{"coordinates":[-91.99352,34.21454],"type":"Point"},"type":"Feature","properties":{"geoNameId":4115891,"alternateNames":["indiana street school","indiana street elementary school"],"toponym":"Indiana Street Elementary School","featureCode":"SCH","countryCode":"US","featureClass":"S","hierarchy":{"features":[{"geometry":null,"type":"Feature","properties":{"geoNameId":4116433,"toponym":"Jefferson County","hierarchy":{"features":[],"type":"FeatureCollection"},"name":"indiana","locationType":null,"positions":[10],"type":"location"}},{"geometry":null,"type":"Feature","properties":{"geoNameId":4099753,"toponym":"Arkansas","hierarchy":{"features":[],"type":"FeatureCollection"},"name":"indiana","locationType":null,"positions":[10],"type":"location"}},{"geometry":null,"type":"Feature","properties":{"geoNameId":6252001,"toponym":"United States","hierarchy":{"features":[],"type":"FeatureCollection"},"name":"indiana","locationType":null,"positions":[10],"type":"location"}},{"geometry":null,"type":"Feature","properties":{"geoNameId":6255149,"toponym":"North America","hierarchy":{"features":[],"type":"FeatureCollection"},"name":"indiana","locationType":null,"positions":[10],"type":"location"}}],"type":"FeatureCollection"},"name":"indiana","locationType":null,"positions":[10],"type":"location"}},{"geometry":{"coordinates":[-85.11775,41.07644],"type":"Point"},"type":"Feature","properties":{"geoNameId":4921855,"alternateNames":["indiana institute of technology","indiana technical college"],"toponym":"Indiana Institute of Technology","featureCode":"SCH","countryCode":"US","featureClass":"S","hierarchy":{"features":[{"geometry":null,"type":"Feature","properties":{"geoNameId":4917555,"toponym":"Allen County","hierarchy":{"features":[],"type":"FeatureCollection"},"name":"indiana","locationType":null,"positions":[10],"type":"location"}},{"geometry":null,"type":"Feature","properties":{"geoNameId":4921868,"toponym":"Indiana","hierarchy":{"features":[],"type":"FeatureCollection"},"name":"indiana","locationType":null,"positions":[10],"type":"location"}},{"geometry":null,"type":"Feature","properties":{"geoNameId":6252001,"toponym":"United States","hierarchy":{"features":[],"type":"FeatureCollection"},"name":"indiana","locationType":null,"positions":[10],"type":"location"}},{"geometry":null,"type":"Feature","properties":{"geoNameId":6255149,"toponym":"North America","hierarchy":{"features":[],"type":"FeatureCollection"},"name":"indiana","locationType":null,"positions":[10],"type":"location"}}],"type":"FeatureCollection"},"name":"indiana","locationType":null,"positions":[10],"type":"location"}},{"geometry":{"coordinates":[-87.33893,41.55615],"type":"Point"},"type":"Feature","properties":{"geoNameId":4921861,"alternateNames":["indiana university northwest campus","indiana university northwest"],"toponym":"Indiana University Northwest","featureCode":"SCH","countryCode":"US","featureClass":"S","hierarchy":{"features":[{"geometry":null,"type":"Feature","properties":{"geoNameId":4922493,"toponym":"Lake County","hierarchy":{"features":[],"type":"FeatureCollection"},"name":"indiana","locationType":null,"positions":[10],"type":"location"}},{"geometry":null,"type":"Feature","properties":{"geoNameId":4921868,"toponym":"Indiana","hierarchy":{"features":[],"type":"FeatureCollection"},"name":"indiana","locationType":null,"positions":[10],"type":"location"}},{"geometry":null,"type":"Feature","properties":{"geoNameId":6252001,"toponym":"United States","hierarchy":{"features":[],"type":"FeatureCollection"},"name":"indiana","locationType":null,"positions":[10],"type":"location"}},{"geometry":null,"type":"Feature","properties":{"geoNameId":6255149,"toponym":"North America","hierarchy":{"features":[],"type":"FeatureCollection"},"name":"indiana","locationType":null,"positions":[10],"type":"location"}}],"type":"FeatureCollection"},"name":"indiana","locationType":null,"positions":[10],"type":"location"}},{"geometry":{"coordinates":[-87.31476,41.55559],"type":"Point"},"type":"Feature","properties":{"geoNameId":4921866,"alternateNames":["indiana vocational - technical college","gary technical vocational school"],"toponym":"Indiana Vocational - Technical College","featureCode":"SCH","countryCode":"US","featureClass":"S","hierarchy":{"features":[{"geometry":null,"type":"Feature","properties":{"geoNameId":4922493,"toponym":"Lake County","hierarchy":{"features":[],"type":"FeatureCollection"},"name":"indiana","locationType":null,"positions":[10],"type":"location"}},{"geometry":null,"type":"Feature","properties":{"geoNameId":4921868,"toponym":"Indiana","hierarchy":{"features":[],"type":"FeatureCollection"},"name":"indiana","locationType":null,"positions":[10],"type":"location"}},{"geometry":null,"type":"Feature","properties":{"geoNameId":6252001,"toponym":"United States","hierarchy":{"features":[],"type":"FeatureCollection"},"name":"indiana","locationType":null,"positions":[10],"type":"location"}},{"geometry":null,"type":"Feature","properties":{"geoNameId":6255149,"toponym":"North America","hierarchy":{"features":[],"type":"FeatureCollection"},"name":"indiana","locationType":null,"positions":[10],"type":"location"}}],"type":"FeatureCollection"},"name":"indiana","locationType":null,"positions":[10],"type":"location"}},{"geometry":{"coordinates":[-85.66803,40.51893],"type":"Point"},"type":"Feature","properties":{"geoNameId":4923212,"alternateNames":["marion college","indiana wesleyan university"],"toponym":"Indiana Wesleyan University","featureCode":"SCH","countryCode":"US","featureClass":"S","hierarchy":{"features":[{"geometry":null,"type":"Feature","properties":{"geoNameId":4920875,"toponym":"Grant County","hierarchy":{"features":[],"type":"FeatureCollection"},"name":"indiana","locationType":null,"positions":[10],"type":"location"}},{"geometry":null,"type":"Feature","properties":{"geoNameId":4921868,"toponym":"Indiana","hierarchy":{"features":[],"type":"FeatureCollection"},"name":"indiana","locationType":null,"positions":[10],"type":"location"}},{"geometry":null,"type":"Feature","properties":{"geoNameId":6252001,"toponym":"United States","hierarchy":{"features":[],"type":"FeatureCollection"},"name":"indiana","locationType":null,"positions":[10],"type":"location"}},{"geometry":null,"type":"Feature","properties":{"geoNameId":6255149,"toponym":"North America","hierarchy":{"features":[],"type":"FeatureCollection"},"name":"indiana","locationType":null,"positions":[10],"type":"location"}}],"type":"FeatureCollection"},"name":"indiana","locationType":null,"positions":[10],"type":"location"}},{"geometry":{"coordinates":[-86.12722,39.77194],"type":"Point"},"type":"Feature","properties":{"geoNameId":7123787,"alternateNames":["indiana womens correctional facility","womens reformatory"],"toponym":"Indiana Womens Correctional Facility","featureCode":"BLDG","countryCode":"US","featureClass":"S","hierarchy":{"features":[{"geometry":null,"type":"Feature","properties":{"geoNameId":4260977,"toponym":"Marion County","hierarchy":{"features":[],"type":"FeatureCollection"},"name":"indiana","locationType":null,"positions":[10],"type":"location"}},{"geometry":null,"type":"Feature","properties":{"geoNameId":4921868,"toponym":"Indiana","hierarchy":{"features":[],"type":"FeatureCollection"},"name":"indiana","locationType":null,"positions":[10],"type":"location"}},{"geometry":null,"type":"Feature","properties":{"geoNameId":6252001,"toponym":"United States","hierarchy":{"features":[],"type":"FeatureCollection"},"name":"indiana","locationType":null,"positions":[10],"type":"location"}},{"geometry":null,"type":"Feature","properties":{"geoNameId":6255149,"toponym":"North America","hierarchy":{"features":[],"type":"FeatureCollection"},"name":"indiana","locationType":null,"positions":[10],"type":"location"}}],"type":"FeatureCollection"},"name":"indiana","locationType":null,"positions":[10],"type":"location"}},{"geometry":{"coordinates":[-87.52252,38.68755],"type":"Point"},"type":"Feature","properties":{"geoNameId":4259407,"alternateNames":["indiana territorial capitol","old territorial legislative hall"],"toponym":"Indiana Territorial Capitol","featureCode":"PRK","countryCode":"US","featureClass":"L","hierarchy":{"features":[{"geometry":null,"type":"Feature","properties":{"geoNameId":4259986,"toponym":"Knox County","hierarchy":{"features":[],"type":"FeatureCollection"},"name":"indiana","locationType":null,"positions":[10],"type":"location"}},{"geometry":null,"type":"Feature","properties":{"geoNameId":4921868,"toponym":"Indiana","hierarchy":{"features":[],"type":"FeatureCollection"},"name":"indiana","locationType":null,"positions":[10],"type":"location"}},{"geometry":null,"type":"Feature","properties":{"geoNameId":6252001,"toponym":"United States","hierarchy":{"features":[],"type":"FeatureCollection"},"name":"indiana","locationType":null,"positions":[10],"type":"location"}},{"geometry":null,"type":"Feature","properties":{"geoNameId":6255149,"toponym":"North America","hierarchy":{"features":[],"type":"FeatureCollection"},"name":"indiana","locationType":null,"positions":[10],"type":"location"}}],"type":"FeatureCollection"},"name":"indiana","locationType":null,"positions":[10],"type":"location"}},{"geometry":{"coordinates":[-86.16276,39.76838],"type":"Point"},"type":"Feature","properties":{"geoNameId":4265290,"alternateNames":["state capitol","indiana state house"],"toponym":"Indiana State House","featureCode":"BLDG","countryCode":"US","featureClass":"S","hierarchy":{"features":[{"geometry":null,"type":"Feature","properties":{"geoNameId":4260977,"toponym":"Marion County","hierarchy":{"features":[],"type":"FeatureCollection"},"name":"indiana","locationType":null,"positions":[10],"type":"location"}},{"geometry":null,"type":"Feature","properties":{"geoNameId":4921868,"toponym":"Indiana","hierarchy":{"features":[],"type":"FeatureCollection"},"name":"indiana","locationType":null,"positions":[10],"type":"location"}},{"geometry":null,"type":"Feature","properties":{"geoNameId":6252001,"toponym":"United States","hierarchy":{"features":[],"type":"FeatureCollection"},"name":"indiana","locationType":null,"positions":[10],"type":"location"}},{"geometry":null,"type":"Feature","properties":{"geoNameId":6255149,"toponym":"North America","hierarchy":{"features":[],"type":"FeatureCollection"},"name":"indiana","locationType":null,"positions":[10],"type":"location"}}],"type":"FeatureCollection"},"name":"indiana","locationType":null,"positions":[10],"type":"location"}},{"geometry":{"coordinates":[-87.69199,41.50115],"type":"Point"},"type":"Feature","properties":{"geoNameId":4897089,"alternateNames":["indiana school","indiana elementary school"],"toponym":"Indiana Elementary School","featureCode":"SCH","countryCode":"US","featureClass":"S","hierarchy":{"features":[{"geometry":null,"type":"Feature","properties":{"geoNameId":4888671,"toponym":"Cook County","hierarchy":{"features":[],"type":"FeatureCollection"},"name":"indiana","locationType":null,"positions":[10],"type":"location"}},{"geometry":null,"type":"Feature","properties":{"geoNameId":4896861,"toponym":"Illinois","hierarchy":{"features":[],"type":"FeatureCollection"},"name":"indiana","locationType":null,"positions":[10],"type":"location"}},{"geometry":null,"type":"Feature","properties":{"geoNameId":6252001,"toponym":"United States","hierarchy":{"features":[],"type":"FeatureCollection"},"name":"indiana","locationType":null,"positions":[10],"type":"location"}},{"geometry":null,"type":"Feature","properties":{"geoNameId":6255149,"toponym":"North America","hierarchy":{"features":[],"type":"FeatureCollection"},"name":"indiana","locationType":null,"positions":[10],"type":"location"}}],"type":"FeatureCollection"},"name":"indiana","locationType":null,"positions":[10],"type":"location"}},{"geometry":{"coordinates":[-87.54992,38.15512],"type":"Point"},"type":"Feature","properties":{"geoNameId":11380978,"alternateNames":["indiana state police department district 35","indiana state police"],"toponym":"Indiana State Police","featureCode":"BLDG","countryCode":"US","featureClass":"S","hierarchy":{"features":[{"geometry":null,"type":"Feature","properties":{"geoNameId":4266235,"toponym":"Vanderburgh County","hierarchy":{"features":[],"type":"FeatureCollection"},"name":"indiana","locationType":null,"positions":[10],"type":"location"}},{"geometry":null,"type":"Feature","properties":{"geoNameId":4921868,"toponym":"Indiana","hierarchy":{"features":[],"type":"FeatureCollection"},"name":"indiana","locationType":null,"positions":[10],"type":"location"}},{"geometry":null,"type":"Feature","properties":{"geoNameId":6252001,"toponym":"United States","hierarchy":{"features":[],"type":"FeatureCollection"},"name":"indiana","locationType":null,"positions":[10],"type":"location"}},{"geometry":null,"type":"Feature","properties":{"geoNameId":6255149,"toponym":"North America","hierarchy":{"features":[],"type":"FeatureCollection"},"name":"indiana","locationType":null,"positions":[10],"type":"location"}}],"type":"FeatureCollection"},"name":"indiana","locationType":null,"positions":[10],"type":"location"}},{"geometry":{"coordinates":[-85.79471,38.33663],"type":"Point"},"type":"Feature","properties":{"geoNameId":7199376,"alternateNames":["southern indiana rehab hospital","southern indiana rehabilitation hospital"],"toponym":"Southern Indiana Rehab Hospital","featureCode":"HSP","countryCode":"US","featureClass":"S","hierarchy":{"features":[{"geometry":null,"type":"Feature","properties":{"geoNameId":4257565,"toponym":"Floyd County","hierarchy":{"features":[],"type":"FeatureCollection"},"name":"indiana","locationType":null,"positions":[10],"type":"location"}},{"geometry":null,"type":"Feature","properties":{"geoNameId":4921868,"toponym":"Indiana","hierarchy":{"features":[],"type":"FeatureCollection"},"name":"indiana","locationType":null,"positions":[10],"type":"location"}},{"geometry":null,"type":"Feature","properties":{"geoNameId":6252001,"toponym":"United States","hierarchy":{"features":[],"type":"FeatureCollection"},"name":"indiana","locationType":null,"positions":[10],"type":"location"}},{"geometry":null,"type":"Feature","properties":{"geoNameId":6255149,"toponym":"North America","hierarchy":{"features":[],"type":"FeatureCollection"},"name":"indiana","locationType":null,"positions":[10],"type":"location"}}],"type":"FeatureCollection"},"name":"indiana","locationType":null,"positions":[10],"type":"location"}}],"type":"FeatureCollection"}}}],"type":"FeatureCollection"}
